{"type":"FeatureCollection","features":[{"type":"Feature","properties":{"name":"Georgia trip corridor"},"geometry":{"type":"MultiPolygon","coordinates":[[[[45.06293,41.6692],[45.05221,41.70428],[45.02218,41.73241],[44.97878,41.74802],[44.93062,41.74802],[44.88722,41.73241],[44.85719,41.70428],[44.84647,41.6692],[44.85719,41.63412],[44.88722,41.60599],[44.93062,41.59038],[44.97878,41.59038],[45.02218,41.60599],[45.05221,41.63412],[45.06293,41.6692]]],[[[44.92718,41.6977],[44.91646,41.73278],[44.88641,41.76091],[44.84299,41.77652],[44.79481,41.77652],[44.75139,41.76091],[44.72134,41.73278],[44.71062,41.6977],[44.72134,41.66262],[44.75139,41.63449],[44.79481,41.61888],[44.84299,41.61888],[44.88641,41.63449],[44.91646,41.66262],[44.92718,41.6977]]],[[[44.92017,41.6906],[44.90945,41.72568],[44.8794,41.75381],[44.83599,41.76942],[44.78781,41.76942],[44.7444,41.75381],[44.71435,41.72568],[44.70363,41.6906],[44.71435,41.65552],[44.7444,41.62739],[44.78781,41.61178],[44.83599,41.61178],[44.8794,41.62739],[44.90945,41.65552],[44.92017,41.6906]]],[[[44.91677,41.6934],[44.90605,41.72848],[44.87601,41.75661],[44.83259,41.77222],[44.78441,41.77222],[44.74099,41.75661],[44.71095,41.72848],[44.70023,41.6934],[44.71095,41.65832],[44.74099,41.63019],[44.78441,41.61458],[44.83259,41.61458],[44.87601,41.63019],[44.90605,41.65832],[44.91677,41.6934]]],[[[44.89427,41.6951],[44.88355,41.73018],[44.85351,41.75831],[44.81009,41.77392],[44.76191,41.77392],[44.71849,41.75831],[44.68845,41.73018],[44.67773,41.6951],[44.68845,41.66002],[44.71849,41.63189],[44.76191,41.61628],[44.81009,41.61628],[44.85351,41.63189],[44.88355,41.66002],[44.89427,41.6951]]],[[[44.90984,41.69373],[44.89912,41.72881],[44.86908,41.75694],[44.82566,41.77255],[44.77748,41.77255],[44.73406,41.75694],[44.70402,41.72881],[44.6933,41.69373],[44.70402,41.65865],[44.73406,41.63052],[44.77748,41.61491],[44.82566,41.61491],[44.86908,41.63052],[44.89912,41.65865],[44.90984,41.69373]]],[[[44.90159,41.74386],[44.89086,41.77894],[44.86079,41.80707],[44.81734,41.82268],[44.76912,41.82268],[44.72567,41.80707],[44.6956,41.77894],[44.68487,41.74386],[44.6956,41.70878],[44.72567,41.68065],[44.76912,41.66504],[44.81734,41.66504],[44.86079,41.68065],[44.89086,41.70878],[44.90159,41.74386]]],[[[44.92722,41.77137],[44.91649,41.80645],[44.88641,41.83458],[44.84294,41.85019],[44.7947,41.85019],[44.75123,41.83458],[44.72115,41.80645],[44.71042,41.77137],[44.72115,41.73629],[44.75123,41.70816],[44.7947,41.69255],[44.84294,41.69255],[44.88641,41.70816],[44.91649,41.73629],[44.92722,41.77137]]],[[[44.87949,41.80029],[44.86875,41.83537],[44.83866,41.8635],[44.79517,41.87911],[44.74691,41.87911],[44.70342,41.8635],[44.67333,41.83537],[44.66259,41.80029],[44.67333,41.76521],[44.70342,41.73708],[44.74691,41.72147],[44.79517,41.72147],[44.83866,41.73708],[44.86875,41.76521],[44.87949,41.80029]]],[[[44.84441,41.82713],[44.83366,41.86221],[44.80356,41.89034],[44.76005,41.90595],[44.71177,41.90595],[44.66826,41.89034],[44.63816,41.86221],[44.62741,41.82713],[44.63816,41.79205],[44.66826,41.76392],[44.71177,41.74831],[44.76005,41.74831],[44.80356,41.76392],[44.83366,41.79205],[44.84441,41.82713]]],[[[44.82797,41.88217],[44.81722,41.91725],[44.78709,41.94538],[44.74354,41.96099],[44.69522,41.96099],[44.65167,41.94538],[44.62154,41.91725],[44.61079,41.88217],[44.62154,41.84709],[44.65167,41.81896],[44.69522,41.80335],[44.74354,41.80335],[44.78709,41.81896],[44.81722,41.84709],[44.82797,41.88217]]],[[[44.84919,41.94685],[44.83843,41.98193],[44.80826,42.01006],[44.76468,42.02567],[44.7163,42.02567],[44.67272,42.01006],[44.64255,41.98193],[44.63179,41.94685],[44.64255,41.91177],[44.67272,41.88364],[44.7163,41.86803],[44.76468,41.86803],[44.80826,41.88364],[44.83843,41.91177],[44.84919,41.94685]]],[[[44.86156,42.00797],[44.85078,42.04305],[44.82059,42.07118],[44.77696,42.08679],[44.72854,42.08679],[44.68491,42.07118],[44.65472,42.04305],[44.64394,42.00797],[44.65472,41.97289],[44.68491,41.94476],[44.72854,41.92915],[44.77696,41.92915],[44.82059,41.94476],[44.85078,41.97289],[44.86156,42.00797]]],[[[44.85794,42.07009],[44.84716,42.10517],[44.81694,42.1333],[44.77327,42.14891],[44.72479,42.14891],[44.68112,42.1333],[44.6509,42.10517],[44.64012,42.07009],[44.6509,42.03501],[44.68112,42.00688],[44.72479,41.99127],[44.77327,41.99127],[44.81694,42.00688],[44.84716,42.03501],[44.85794,42.07009]]],[[[44.88444,42.11944],[44.87364,42.15452],[44.8434,42.18265],[44.79969,42.19826],[44.75119,42.19826],[44.70748,42.18265],[44.67724,42.15452],[44.66644,42.11944],[44.67724,42.08436],[44.70748,42.05623],[44.75119,42.04062],[44.79969,42.04062],[44.8434,42.05623],[44.87364,42.08436],[44.88444,42.11944]]],[[[44.84834,42.14736],[44.83755,42.18244],[44.80729,42.21057],[44.76356,42.22618],[44.71504,42.22618],[44.67131,42.21057],[44.64105,42.18244],[44.63026,42.14736],[44.64105,42.11228],[44.67131,42.08415],[44.71504,42.06854],[44.76356,42.06854],[44.80729,42.08415],[44.83755,42.11228],[44.84834,42.14736]]],[[[44.80346,42.17163],[44.79265,42.20671],[44.76238,42.23484],[44.71864,42.25045],[44.6701,42.25045],[44.62636,42.23484],[44.59609,42.20671],[44.58528,42.17163],[44.59609,42.13655],[44.62636,42.10842],[44.6701,42.09281],[44.71864,42.09281],[44.76238,42.10842],[44.79265,42.13655],[44.80346,42.17163]]],[[[44.78286,42.22248],[44.77205,42.25756],[44.74176,42.28569],[44.69798,42.3013],[44.6494,42.3013],[44.60562,42.28569],[44.57533,42.25756],[44.56452,42.22248],[44.57533,42.1874],[44.60562,42.15927],[44.6494,42.14366],[44.69798,42.14366],[44.74176,42.15927],[44.77205,42.1874],[44.78286,42.22248]]],[[[44.79023,42.27443],[44.77941,42.30951],[44.7491,42.33764],[44.70528,42.35325],[44.65666,42.35325],[44.61284,42.33764],[44.58253,42.30951],[44.57171,42.27443],[44.58253,42.23935],[44.61284,42.21122],[44.65666,42.19561],[44.70528,42.19561],[44.7491,42.21122],[44.77941,42.23935],[44.79023,42.27443]]],[[[44.79148,42.32407],[44.78065,42.35915],[44.75031,42.38728],[44.70646,42.40289],[44.6578,42.40289],[44.61395,42.38728],[44.58361,42.35915],[44.57278,42.32407],[44.58361,42.28899],[44.61395,42.26086],[44.6578,42.24525],[44.70646,42.24525],[44.75031,42.26086],[44.78065,42.28899],[44.79148,42.32407]]],[[[44.79093,42.37026],[44.78009,42.40534],[44.74973,42.43347],[44.70585,42.44908],[44.65715,42.44908],[44.61327,42.43347],[44.58291,42.40534],[44.57207,42.37026],[44.58291,42.33518],[44.61327,42.30705],[44.65715,42.29144],[44.70585,42.29144],[44.74973,42.30705],[44.78009,42.33518],[44.79093,42.37026]]],[[[44.73508,42.41151],[44.72424,42.44659],[44.69385,42.47472],[44.64995,42.49033],[44.60121,42.49033],[44.55731,42.47472],[44.52692,42.44659],[44.51608,42.41151],[44.52692,42.37643],[44.55731,42.3483],[44.60121,42.33269],[44.64995,42.33269],[44.69385,42.3483],[44.72424,42.37643],[44.73508,42.41151]]],[[[44.66222,42.42724],[44.65137,42.46232],[44.62098,42.49045],[44.57706,42.50606],[44.52832,42.50606],[44.4844,42.49045],[44.45401,42.46232],[44.44316,42.42724],[44.45401,42.39216],[44.4844,42.36403],[44.52832,42.34842],[44.57706,42.34842],[44.62098,42.36403],[44.65137,42.39216],[44.66222,42.42724]]],[[[44.59825,42.43823],[44.5874,42.47331],[44.557,42.50144],[44.51308,42.51705],[44.46432,42.51705],[44.4204,42.50144],[44.39,42.47331],[44.37915,42.43823],[44.39,42.40315],[44.4204,42.37502],[44.46432,42.35941],[44.51308,42.35941],[44.557,42.37502],[44.5874,42.40315],[44.59825,42.43823]]],[[[44.60069,42.45113],[44.58984,42.48621],[44.55944,42.51434],[44.5155,42.52995],[44.46674,42.52995],[44.4228,42.51434],[44.3924,42.48621],[44.38155,42.45113],[44.3924,42.41605],[44.4228,42.38792],[44.46674,42.37231],[44.5155,42.37231],[44.55944,42.38792],[44.58984,42.41605],[44.60069,42.45113]]],[[[44.58393,42.48075],[44.57308,42.51583],[44.54266,42.54396],[44.4987,42.55957],[44.44992,42.55957],[44.40596,42.54396],[44.37554,42.51583],[44.36469,42.48075],[44.37554,42.44567],[44.40596,42.41754],[44.44992,42.40193],[44.4987,42.40193],[44.54266,42.41754],[44.57308,42.44567],[44.58393,42.48075]]],[[[44.56407,42.50323],[44.55321,42.53831],[44.52278,42.56644],[44.47881,42.58205],[44.43001,42.58205],[44.38604,42.56644],[44.35561,42.53831],[44.34475,42.50323],[44.35561,42.46815],[44.38604,42.44002],[44.43001,42.42441],[44.47881,42.42441],[44.52278,42.44002],[44.55321,42.46815],[44.56407,42.50323]]],[[[44.59575,42.53948],[44.58488,42.57456],[44.55443,42.60269],[44.51044,42.6183],[44.4616,42.6183],[44.41761,42.60269],[44.38716,42.57456],[44.37629,42.53948],[44.38716,42.5044],[44.41761,42.47627],[44.4616,42.46066],[44.51044,42.46066],[44.55443,42.47627],[44.58488,42.5044],[44.59575,42.53948]]],[[[44.6354,42.58064],[44.62453,42.61572],[44.59406,42.64385],[44.55003,42.65946],[44.50117,42.65946],[44.45714,42.64385],[44.42667,42.61572],[44.4158,42.58064],[44.42667,42.54556],[44.45714,42.51743],[44.50117,42.50182],[44.55003,42.50182],[44.59406,42.51743],[44.62453,42.54556],[44.6354,42.58064]]],[[[44.69343,42.61008],[44.68255,42.64516],[44.65207,42.67329],[44.60802,42.6889],[44.55914,42.6889],[44.51509,42.67329],[44.48461,42.64516],[44.47373,42.61008],[44.48461,42.575],[44.51509,42.54687],[44.55914,42.53126],[44.60802,42.53126],[44.65207,42.54687],[44.68255,42.575],[44.69343,42.61008]]],[[[44.75024,42.64446],[44.73936,42.67954],[44.70886,42.70767],[44.66479,42.72328],[44.61587,42.72328],[44.5718,42.70767],[44.5413,42.67954],[44.53042,42.64446],[44.5413,42.60938],[44.5718,42.58125],[44.61587,42.56564],[44.66479,42.56564],[44.70886,42.58125],[44.73936,42.60938],[44.75024,42.64446]]],[[[44.75251,42.65738],[44.74163,42.69246],[44.71112,42.72059],[44.66704,42.7362],[44.61812,42.7362],[44.57404,42.72059],[44.54353,42.69246],[44.53265,42.65738],[44.54353,42.6223],[44.57404,42.59417],[44.61812,42.57856],[44.66704,42.57856],[44.71112,42.59417],[44.74163,42.6223],[44.75251,42.65738]]],[[[44.73021,42.66302],[44.71933,42.6981],[44.68882,42.72623],[44.64473,42.74184],[44.59581,42.74184],[44.55172,42.72623],[44.52121,42.6981],[44.51033,42.66302],[44.52121,42.62794],[44.55172,42.59981],[44.59581,42.5842],[44.64473,42.5842],[44.68882,42.59981],[44.71933,42.62794],[44.73021,42.66302]]],[[[44.75046,42.66067],[44.73957,42.69575],[44.70907,42.72388],[44.66498,42.73949],[44.61606,42.73949],[44.57197,42.72388],[44.54147,42.69575],[44.53058,42.66067],[44.54147,42.62559],[44.57197,42.59746],[44.61606,42.58185],[44.66498,42.58185],[44.70907,42.59746],[44.73957,42.62559],[44.75046,42.66067]]],[[[44.72893,42.61619],[44.71805,42.65127],[44.68757,42.6794],[44.64352,42.69501],[44.59462,42.69501],[44.55057,42.6794],[44.52009,42.65127],[44.50921,42.61619],[44.52009,42.58111],[44.55057,42.55298],[44.59462,42.53737],[44.64352,42.53737],[44.68757,42.55298],[44.71805,42.58111],[44.72893,42.61619]]],[[[44.74105,42.60844],[44.73017,42.64352],[44.69969,42.67165],[44.65564,42.68726],[44.60676,42.68726],[44.56271,42.67165],[44.53223,42.64352],[44.52135,42.60844],[44.53223,42.57336],[44.56271,42.54523],[44.60676,42.52962],[44.65564,42.52962],[44.69969,42.54523],[44.73017,42.57336],[44.74105,42.60844]]],[[[44.68838,42.60415],[44.6775,42.63923],[44.64702,42.66736],[44.60298,42.68297],[44.5541,42.68297],[44.51006,42.66736],[44.47958,42.63923],[44.4687,42.60415],[44.47958,42.56907],[44.51006,42.54094],[44.5541,42.52533],[44.60298,42.52533],[44.64702,42.54094],[44.6775,42.56907],[44.68838,42.60415]]],[[[44.63463,42.57438],[44.62376,42.60946],[44.59329,42.63759],[44.54927,42.6532],[44.50041,42.6532],[44.45639,42.63759],[44.42592,42.60946],[44.41505,42.57438],[44.42592,42.5393],[44.45639,42.51117],[44.50041,42.49556],[44.54927,42.49556],[44.59329,42.51117],[44.62376,42.5393],[44.63463,42.57438]]],[[[44.59013,42.53831],[44.57927,42.57339],[44.54882,42.60152],[44.50483,42.61713],[44.45599,42.61713],[44.412,42.60152],[44.38155,42.57339],[44.37069,42.53831],[44.38155,42.50323],[44.412,42.4751],[44.45599,42.45949],[44.50483,42.45949],[44.54882,42.4751],[44.57927,42.50323],[44.59013,42.53831]]],[[[44.55875,42.49975],[44.54789,42.53483],[44.51746,42.56296],[44.47349,42.57857],[44.42469,42.57857],[44.38072,42.56296],[44.35029,42.53483],[44.33943,42.49975],[44.35029,42.46467],[44.38072,42.43654],[44.42469,42.42093],[44.47349,42.42093],[44.51746,42.43654],[44.54789,42.46467],[44.55875,42.49975]]],[[[44.59311,42.4699],[44.58226,42.50498],[44.55185,42.53311],[44.5079,42.54872],[44.45912,42.54872],[44.41517,42.53311],[44.38476,42.50498],[44.37391,42.4699],[44.38476,42.43482],[44.41517,42.40669],[44.45912,42.39108],[44.5079,42.39108],[44.55185,42.40669],[44.58226,42.43482],[44.59311,42.4699]]],[[[44.60274,42.43949],[44.59189,42.47457],[44.56149,42.5027],[44.51757,42.51831],[44.46881,42.51831],[44.42489,42.5027],[44.39449,42.47457],[44.38364,42.43949],[44.39449,42.40441],[44.42489,42.37628],[44.46881,42.36067],[44.51757,42.36067],[44.56149,42.37628],[44.59189,42.40441],[44.60274,42.43949]]],[[[44.61711,42.43176],[44.60626,42.46684],[44.57587,42.49497],[44.53194,42.51058],[44.4832,42.51058],[44.43927,42.49497],[44.40888,42.46684],[44.39803,42.43176],[44.40888,42.39668],[44.43927,42.36855],[44.4832,42.35294],[44.53194,42.35294],[44.57587,42.36855],[44.60626,42.39668],[44.61711,42.43176]]],[[[44.68311,42.42238],[44.67227,42.45746],[44.64188,42.48559],[44.59796,42.5012],[44.54922,42.5012],[44.5053,42.48559],[44.47491,42.45746],[44.46407,42.42238],[44.47491,42.3873],[44.5053,42.35917],[44.54922,42.34356],[44.59796,42.34356],[44.64188,42.35917],[44.67227,42.3873],[44.68311,42.42238]]],[[[44.75043,42.40562],[44.73959,42.4407],[44.70921,42.46883],[44.6653,42.48444],[44.61658,42.48444],[44.57267,42.46883],[44.54229,42.4407],[44.53145,42.40562],[44.54229,42.37054],[44.57267,42.34241],[44.61658,42.3268],[44.6653,42.3268],[44.70921,42.34241],[44.73959,42.37054],[44.75043,42.40562]]],[[[44.79071,42.3646],[44.77987,42.39968],[44.74951,42.42781],[44.70564,42.44342],[44.65694,42.44342],[44.61307,42.42781],[44.58271,42.39968],[44.57187,42.3646],[44.58271,42.32952],[44.61307,42.30139],[44.65694,42.28578],[44.70564,42.28578],[44.74951,42.30139],[44.77987,42.32952],[44.79071,42.3646]]],[[[44.79528,42.32115],[44.78445,42.35623],[44.75411,42.38436],[44.71026,42.39997],[44.6616,42.39997],[44.61775,42.38436],[44.58741,42.35623],[44.57658,42.32115],[44.58741,42.28607],[44.61775,42.25794],[44.6616,42.24233],[44.71026,42.24233],[44.75411,42.25794],[44.78445,42.28607],[44.79528,42.32115]]],[[[44.78693,42.27058],[44.77611,42.30566],[44.74579,42.33379],[44.70198,42.3494],[44.65336,42.3494],[44.60955,42.33379],[44.57923,42.30566],[44.56841,42.27058],[44.57923,42.2355],[44.60955,42.20737],[44.65336,42.19176],[44.70198,42.19176],[44.74579,42.20737],[44.77611,42.2355],[44.78693,42.27058]]],[[[44.78231,42.21749],[44.77149,42.25257],[44.7412,42.2807],[44.69743,42.29631],[44.64885,42.29631],[44.60508,42.2807],[44.57479,42.25257],[44.56397,42.21749],[44.57479,42.18241],[44.60508,42.15428],[44.64885,42.13867],[44.69743,42.13867],[44.7412,42.15428],[44.77149,42.18241],[44.78231,42.21749]]],[[[44.80625,42.16782],[44.79545,42.2029],[44.76518,42.23103],[44.72144,42.24664],[44.6729,42.24664],[44.62916,42.23103],[44.59889,42.2029],[44.58809,42.16782],[44.59889,42.13274],[44.62916,42.10461],[44.6729,42.089],[44.72144,42.089],[44.76518,42.10461],[44.79545,42.13274],[44.80625,42.16782]]],[[[44.86103,42.1518],[44.85023,42.18688],[44.81997,42.21501],[44.77625,42.23062],[44.72771,42.23062],[44.68399,42.21501],[44.65373,42.18688],[44.64293,42.1518],[44.65373,42.11672],[44.68399,42.08859],[44.72771,42.07298],[44.77625,42.07298],[44.81997,42.08859],[44.85023,42.11672],[44.86103,42.1518]]],[[[44.88024,42.10514],[44.86945,42.14022],[44.83921,42.16835],[44.79552,42.18396],[44.74702,42.18396],[44.70333,42.16835],[44.67309,42.14022],[44.6623,42.10514],[44.67309,42.07006],[44.70333,42.04193],[44.74702,42.02632],[44.79552,42.02632],[44.83921,42.04193],[44.86945,42.07006],[44.88024,42.10514]]],[[[44.85378,42.05084],[44.843,42.08592],[44.81278,42.11405],[44.76913,42.12966],[44.72067,42.12966],[44.67702,42.11405],[44.6468,42.08592],[44.63602,42.05084],[44.6468,42.01576],[44.67702,41.98763],[44.72067,41.97202],[44.76913,41.97202],[44.81278,41.98763],[44.843,42.01576],[44.85378,42.05084]]],[[[44.86034,41.99258],[44.84957,42.02766],[44.81938,42.05579],[44.77577,42.0714],[44.72735,42.0714],[44.68374,42.05579],[44.65355,42.02766],[44.64278,41.99258],[44.65355,41.9575],[44.68374,41.92937],[44.72735,41.91376],[44.77577,41.91376],[44.81938,41.92937],[44.84957,41.9575],[44.86034,41.99258]]],[[[44.83611,41.91838],[44.82535,41.95346],[44.7952,41.98159],[44.75164,41.9972],[44.70328,41.9972],[44.65972,41.98159],[44.62957,41.95346],[44.61881,41.91838],[44.62957,41.8833],[44.65972,41.85517],[44.70328,41.83956],[44.75164,41.83956],[44.7952,41.85517],[44.82535,41.8833],[44.83611,41.91838]]],[[[44.83879,41.86839],[44.82804,41.90347],[44.79791,41.9316],[44.75438,41.94721],[44.70606,41.94721],[44.66253,41.9316],[44.6324,41.90347],[44.62165,41.86839],[44.6324,41.83331],[44.66253,41.80518],[44.70606,41.78957],[44.75438,41.78957],[44.79791,41.80518],[44.82804,41.83331],[44.83879,41.86839]]],[[[44.85285,41.82768],[44.8421,41.86276],[44.812,41.89089],[44.76849,41.9065],[44.72021,41.9065],[44.6767,41.89089],[44.6466,41.86276],[44.63585,41.82768],[44.6466,41.7926],[44.6767,41.76447],[44.72021,41.74886],[44.76849,41.74886],[44.812,41.76447],[44.8421,41.7926],[44.85285,41.82768]]],[[[44.8577,41.84213],[44.84696,41.87721],[44.81684,41.90534],[44.77333,41.92095],[44.72503,41.92095],[44.68152,41.90534],[44.6514,41.87721],[44.64066,41.84213],[44.6514,41.80705],[44.68152,41.77892],[44.72503,41.76331],[44.77333,41.76331],[44.81684,41.77892],[44.84696,41.80705],[44.8577,41.84213]]],[[[44.83431,41.82816],[44.82356,41.86324],[44.79346,41.89137],[44.74995,41.90698],[44.70167,41.90698],[44.65816,41.89137],[44.62806,41.86324],[44.61731,41.82816],[44.62806,41.79308],[44.65816,41.76495],[44.70167,41.74934],[44.74995,41.74934],[44.79346,41.76495],[44.82356,41.79308],[44.83431,41.82816]]],[[[44.81875,41.83917],[44.808,41.87425],[44.77789,41.90238],[44.73438,41.91799],[44.68608,41.91799],[44.64257,41.90238],[44.61246,41.87425],[44.60171,41.83917],[44.61246,41.80409],[44.64257,41.77596],[44.68608,41.76035],[44.73438,41.76035],[44.77789,41.77596],[44.808,41.80409],[44.81875,41.83917]]],[[[44.83924,41.83409],[44.82849,41.86917],[44.79838,41.8973],[44.75488,41.91291],[44.70658,41.91291],[44.66308,41.8973],[44.63297,41.86917],[44.62222,41.83409],[44.63297,41.79901],[44.66308,41.77088],[44.70658,41.75527],[44.75488,41.75527],[44.79838,41.77088],[44.82849,41.79901],[44.83924,41.83409]]],[[[44.8258,41.88558],[44.81504,41.92066],[44.78491,41.94879],[44.74137,41.9644],[44.69303,41.9644],[44.64949,41.94879],[44.61936,41.92066],[44.6086,41.88558],[44.61936,41.8505],[44.64949,41.82237],[44.69303,41.80676],[44.74137,41.80676],[44.78491,41.82237],[44.81504,41.8505],[44.8258,41.88558]]],[[[44.71754,41.8974],[44.70678,41.93248],[44.67664,41.96061],[44.63309,41.97622],[44.58475,41.97622],[44.5412,41.96061],[44.51106,41.93248],[44.5003,41.8974],[44.51106,41.86232],[44.5412,41.83419],[44.58475,41.81858],[44.63309,41.81858],[44.67664,41.83419],[44.70678,41.86232],[44.71754,41.8974]]],[[[44.65382,41.92227],[44.64306,41.95735],[44.61291,41.98548],[44.56934,42.00109],[44.52098,42.00109],[44.47741,41.98548],[44.44726,41.95735],[44.4365,41.92227],[44.44726,41.88719],[44.47741,41.85906],[44.52098,41.84345],[44.56934,41.84345],[44.61291,41.85906],[44.64306,41.88719],[44.65382,41.92227]]],[[[44.54756,41.97697],[44.53679,42.01205],[44.50662,42.04018],[44.46301,42.05579],[44.41461,42.05579],[44.371,42.04018],[44.34083,42.01205],[44.33006,41.97697],[44.34083,41.94189],[44.371,41.91376],[44.41461,41.89815],[44.46301,41.89815],[44.50662,41.91376],[44.53679,41.94189],[44.54756,41.97697]]],[[[44.48466,42.00256],[44.47388,42.03764],[44.44369,42.06577],[44.40007,42.08138],[44.35165,42.08138],[44.30803,42.06577],[44.27784,42.03764],[44.26706,42.00256],[44.27784,41.96748],[44.30803,41.93935],[44.35165,41.92374],[44.40007,41.92374],[44.44369,41.93935],[44.47388,41.96748],[44.48466,42.00256]]],[[[44.40658,42.02117],[44.3958,42.05625],[44.3656,42.08438],[44.32197,42.09999],[44.27353,42.09999],[44.2299,42.08438],[44.1997,42.05625],[44.18892,42.02117],[44.1997,41.98609],[44.2299,41.95796],[44.27353,41.94235],[44.32197,41.94235],[44.3656,41.95796],[44.3958,41.98609],[44.40658,42.02117]]],[[[44.3294,42.02423],[44.31863,42.05931],[44.28843,42.08744],[44.24479,42.10305],[44.19635,42.10305],[44.15271,42.08744],[44.12251,42.05931],[44.11174,42.02423],[44.12251,41.98915],[44.15271,41.96102],[44.19635,41.94541],[44.24479,41.94541],[44.28843,41.96102],[44.31863,41.98915],[44.3294,42.02423]]],[[[44.25718,42.01888],[44.24641,42.05396],[44.21621,42.08209],[44.17258,42.0977],[44.12414,42.0977],[44.08051,42.08209],[44.05031,42.05396],[44.03954,42.01888],[44.05031,41.9838],[44.08051,41.95567],[44.12414,41.94006],[44.17258,41.94006],[44.21621,41.95567],[44.24641,41.9838],[44.25718,42.01888]]],[[[44.23662,41.98341],[44.22585,42.01849],[44.19567,42.04662],[44.15206,42.06223],[44.10366,42.06223],[44.06005,42.04662],[44.02987,42.01849],[44.0191,41.98341],[44.02987,41.94833],[44.06005,41.9202],[44.10366,41.90459],[44.15206,41.90459],[44.19567,41.9202],[44.22585,41.94833],[44.23662,41.98341]]],[[[44.29749,41.9783],[44.28672,42.01338],[44.25655,42.04151],[44.21294,42.05712],[44.16454,42.05712],[44.12093,42.04151],[44.09076,42.01338],[44.07999,41.9783],[44.09076,41.94322],[44.12093,41.91509],[44.16454,41.89948],[44.21294,41.89948],[44.25655,41.91509],[44.28672,41.94322],[44.29749,41.9783]]],[[[44.28927,41.98159],[44.2785,42.01667],[44.24832,42.0448],[44.20471,42.06041],[44.15631,42.06041],[44.1127,42.0448],[44.08252,42.01667],[44.07175,41.98159],[44.08252,41.94651],[44.1127,41.91838],[44.15631,41.90277],[44.20471,41.90277],[44.24832,41.91838],[44.2785,41.94651],[44.28927,41.98159]]],[[[44.22996,41.97917],[44.21919,42.01425],[44.18901,42.04238],[44.1454,42.05799],[44.097,42.05799],[44.05339,42.04238],[44.02321,42.01425],[44.01244,41.97917],[44.02321,41.94409],[44.05339,41.91596],[44.097,41.90035],[44.1454,41.90035],[44.18901,41.91596],[44.21919,41.94409],[44.22996,41.97917]]],[[[44.22162,41.98468],[44.21084,42.01976],[44.18066,42.04789],[44.13705,42.0635],[44.08865,42.0635],[44.04504,42.04789],[44.01486,42.01976],[44.00408,41.98468],[44.01486,41.9496],[44.04504,41.92147],[44.08865,41.90586],[44.13705,41.90586],[44.18066,41.92147],[44.21084,41.9496],[44.22162,41.98468]]],[[[44.22269,41.98762],[44.21192,42.0227],[44.18174,42.05083],[44.13812,42.06644],[44.08972,42.06644],[44.0461,42.05083],[44.01592,42.0227],[44.00515,41.98762],[44.01592,41.95254],[44.0461,41.92441],[44.08972,41.9088],[44.13812,41.9088],[44.18174,41.92441],[44.21192,41.95254],[44.22269,41.98762]]],[[[44.1844,42.01541],[44.17362,42.05049],[44.14343,42.07862],[44.09979,42.09423],[44.05137,42.09423],[44.00773,42.07862],[43.97754,42.05049],[43.96676,42.01541],[43.97754,41.98033],[44.00773,41.9522],[44.05137,41.93659],[44.09979,41.93659],[44.14343,41.9522],[44.17362,41.98033],[44.1844,42.01541]]],[[[44.11446,42.02035],[44.10368,42.05543],[44.07348,42.08356],[44.02985,42.09917],[43.98141,42.09917],[43.93778,42.08356],[43.90758,42.05543],[43.8968,42.02035],[43.90758,41.98527],[43.93778,41.95714],[43.98141,41.94153],[44.02985,41.94153],[44.07348,41.95714],[44.10368,41.98527],[44.11446,42.02035]]],[[[44.00655,42.05631],[43.99576,42.09139],[43.96555,42.11952],[43.92189,42.13513],[43.87343,42.13513],[43.82977,42.11952],[43.79956,42.09139],[43.78877,42.05631],[43.79956,42.02123],[43.82977,41.9931],[43.87343,41.97749],[43.92189,41.97749],[43.96555,41.9931],[43.99576,42.02123],[44.00655,42.05631]]],[[[43.95257,42.03254],[43.94179,42.06762],[43.91159,42.09575],[43.86794,42.11136],[43.8195,42.11136],[43.77585,42.09575],[43.74565,42.06762],[43.73487,42.03254],[43.74565,41.99746],[43.77585,41.96933],[43.8195,41.95372],[43.86794,41.95372],[43.91159,41.96933],[43.94179,41.99746],[43.95257,42.03254]]],[[[43.86233,42.02316],[43.85155,42.05824],[43.82136,42.08637],[43.77772,42.10198],[43.72928,42.10198],[43.68564,42.08637],[43.65545,42.05824],[43.64467,42.02316],[43.65545,41.98808],[43.68564,41.95995],[43.72928,41.94434],[43.77772,41.94434],[43.82136,41.95995],[43.85155,41.98808],[43.86233,42.02316]]],[[[43.79396,42.01393],[43.78318,42.04901],[43.75299,42.07714],[43.70935,42.09275],[43.66093,42.09275],[43.61729,42.07714],[43.5871,42.04901],[43.57632,42.01393],[43.5871,41.97885],[43.61729,41.95072],[43.66093,41.93511],[43.70935,41.93511],[43.75299,41.95072],[43.78318,41.97885],[43.79396,42.01393]]],[[[43.72634,42.02658],[43.71556,42.06166],[43.68536,42.08979],[43.64172,42.1054],[43.59328,42.1054],[43.54964,42.08979],[43.51944,42.06166],[43.50866,42.02658],[43.51944,41.9915],[43.54964,41.96337],[43.59328,41.94776],[43.64172,41.94776],[43.68536,41.96337],[43.71556,41.9915],[43.72634,42.02658]]],[[[43.65893,42.02935],[43.64815,42.06443],[43.61795,42.09256],[43.57431,42.10817],[43.52587,42.10817],[43.48223,42.09256],[43.45203,42.06443],[43.44125,42.02935],[43.45203,41.99427],[43.48223,41.96614],[43.52587,41.95053],[43.57431,41.95053],[43.61795,41.96614],[43.64815,41.99427],[43.65893,42.02935]]],[[[43.59245,42.01989],[43.58167,42.05497],[43.55147,42.0831],[43.50784,42.09871],[43.4594,42.09871],[43.41577,42.0831],[43.38557,42.05497],[43.37479,42.01989],[43.38557,41.98481],[43.41577,41.95668],[43.4594,41.94107],[43.50784,41.94107],[43.55147,41.95668],[43.58167,41.98481],[43.59245,42.01989]]],[[[43.575,42.0113],[43.56423,42.04638],[43.53403,42.07451],[43.4904,42.09012],[43.44198,42.09012],[43.39835,42.07451],[43.36815,42.04638],[43.35738,42.0113],[43.36815,41.97622],[43.39835,41.94809],[43.44198,41.93248],[43.4904,41.93248],[43.53403,41.94809],[43.56423,41.97622],[43.575,42.0113]]],[[[43.59948,42.02377],[43.5887,42.05885],[43.55851,42.08698],[43.51487,42.10259],[43.46643,42.10259],[43.42279,42.08698],[43.3926,42.05885],[43.38182,42.02377],[43.3926,41.98869],[43.42279,41.96056],[43.46643,41.94495],[43.51487,41.94495],[43.55851,41.96056],[43.5887,41.98869],[43.59948,42.02377]]],[[[43.6067,42.04579],[43.59592,42.08087],[43.56571,42.109],[43.52206,42.12461],[43.4736,42.12461],[43.42995,42.109],[43.39974,42.08087],[43.38896,42.04579],[43.39974,42.01071],[43.42995,41.98258],[43.4736,41.96697],[43.52206,41.96697],[43.56571,41.98258],[43.59592,42.01071],[43.6067,42.04579]]],[[[43.58216,42.07933],[43.57137,42.11441],[43.54115,42.14254],[43.49747,42.15815],[43.44899,42.15815],[43.40531,42.14254],[43.37509,42.11441],[43.3643,42.07933],[43.37509,42.04425],[43.40531,42.01612],[43.44899,42.00051],[43.49747,42.00051],[43.54115,42.01612],[43.57137,42.04425],[43.58216,42.07933]]],[[[43.52331,42.09595],[43.51252,42.13103],[43.48228,42.15916],[43.4386,42.17477],[43.3901,42.17477],[43.34642,42.15916],[43.31618,42.13103],[43.30539,42.09595],[43.31618,42.06087],[43.34642,42.03274],[43.3901,42.01713],[43.4386,42.01713],[43.48228,42.03274],[43.51252,42.06087],[43.52331,42.09595]]],[[[43.45467,42.10645],[43.44388,42.14153],[43.41364,42.16966],[43.36995,42.18527],[43.32145,42.18527],[43.27776,42.16966],[43.24752,42.14153],[43.23673,42.10645],[43.24752,42.07137],[43.27776,42.04324],[43.32145,42.02763],[43.36995,42.02763],[43.41364,42.04324],[43.44388,42.07137],[43.45467,42.10645]]],[[[43.38493,42.10967],[43.37414,42.14475],[43.3439,42.17288],[43.3002,42.18849],[43.2517,42.18849],[43.208,42.17288],[43.17776,42.14475],[43.16697,42.10967],[43.17776,42.07459],[43.208,42.04646],[43.2517,42.03085],[43.3002,42.03085],[43.3439,42.04646],[43.37414,42.07459],[43.38493,42.10967]]],[[[43.30694,42.10898],[43.29615,42.14406],[43.26591,42.17219],[43.22221,42.1878],[43.17371,42.1878],[43.13001,42.17219],[43.09977,42.14406],[43.08898,42.10898],[43.09977,42.0739],[43.13001,42.04577],[43.17371,42.03016],[43.22221,42.03016],[43.26591,42.04577],[43.29615,42.0739],[43.30694,42.10898]]],[[[43.24972,42.08763],[43.23893,42.12271],[43.2087,42.15084],[43.16502,42.16645],[43.11654,42.16645],[43.07286,42.15084],[43.04263,42.12271],[43.03184,42.08763],[43.04263,42.05255],[43.07286,42.02442],[43.11654,42.00881],[43.16502,42.00881],[43.2087,42.02442],[43.23893,42.05255],[43.24972,42.08763]]],[[[43.18349,42.09846],[43.1727,42.13354],[43.14247,42.16167],[43.09878,42.17728],[43.05028,42.17728],[43.00659,42.16167],[42.97636,42.13354],[42.96557,42.09846],[42.97636,42.06338],[43.00659,42.03525],[43.05028,42.01964],[43.09878,42.01964],[43.14247,42.03525],[43.1727,42.06338],[43.18349,42.09846]]],[[[43.12557,42.12739],[43.11477,42.16247],[43.08453,42.1906],[43.04082,42.20621],[42.9923,42.20621],[42.94859,42.1906],[42.91835,42.16247],[42.90755,42.12739],[42.91835,42.09231],[42.94859,42.06418],[42.9923,42.04857],[43.04082,42.04857],[43.08453,42.06418],[43.11477,42.09231],[43.12557,42.12739]]],[[[43.05384,42.16248],[43.04304,42.19756],[43.01277,42.22569],[42.96904,42.2413],[42.9205,42.2413],[42.87677,42.22569],[42.8465,42.19756],[42.8357,42.16248],[42.8465,42.1274],[42.87677,42.09927],[42.9205,42.08366],[42.96904,42.08366],[43.01277,42.09927],[43.04304,42.1274],[43.05384,42.16248]]],[[[42.99054,42.19707],[42.97973,42.23215],[42.94945,42.26028],[42.90569,42.27589],[42.85713,42.27589],[42.81337,42.26028],[42.78309,42.23215],[42.77228,42.19707],[42.78309,42.16199],[42.81337,42.13386],[42.85713,42.11825],[42.90569,42.11825],[42.94945,42.13386],[42.97973,42.16199],[42.99054,42.19707]]],[[[42.9039,42.20913],[42.89309,42.24421],[42.8628,42.27234],[42.81904,42.28795],[42.77046,42.28795],[42.7267,42.27234],[42.69641,42.24421],[42.6856,42.20913],[42.69641,42.17405],[42.7267,42.14592],[42.77046,42.13031],[42.81904,42.13031],[42.8628,42.14592],[42.89309,42.17405],[42.9039,42.20913]]],[[[42.81888,42.18392],[42.80807,42.219],[42.7778,42.24713],[42.73405,42.26274],[42.68549,42.26274],[42.64174,42.24713],[42.61147,42.219],[42.60066,42.18392],[42.61147,42.14884],[42.64174,42.12071],[42.68549,42.1051],[42.73405,42.1051],[42.7778,42.12071],[42.80807,42.14884],[42.81888,42.18392]]],[[[42.74733,42.18577],[42.73653,42.22085],[42.70625,42.24898],[42.6625,42.26459],[42.61394,42.26459],[42.57019,42.24898],[42.53991,42.22085],[42.52911,42.18577],[42.53991,42.15069],[42.57019,42.12256],[42.61394,42.10695],[42.6625,42.10695],[42.70625,42.12256],[42.73653,42.15069],[42.74733,42.18577]]],[[[42.67677,42.1715],[42.66596,42.20658],[42.63569,42.23471],[42.59195,42.25032],[42.54341,42.25032],[42.49967,42.23471],[42.4694,42.20658],[42.45859,42.1715],[42.4694,42.13642],[42.49967,42.10829],[42.54341,42.09268],[42.59195,42.09268],[42.63569,42.10829],[42.66596,42.13642],[42.67677,42.1715]]],[[[42.60015,42.16049],[42.58935,42.19557],[42.55908,42.2237],[42.51535,42.23931],[42.46681,42.23931],[42.42308,42.2237],[42.39281,42.19557],[42.38201,42.16049],[42.39281,42.12541],[42.42308,42.09728],[42.46681,42.08167],[42.51535,42.08167],[42.55908,42.09728],[42.58935,42.12541],[42.60015,42.16049]]],[[[42.53963,42.17407],[42.52883,42.20915],[42.49856,42.23728],[42.45481,42.25289],[42.40627,42.25289],[42.36252,42.23728],[42.33225,42.20915],[42.32145,42.17407],[42.33225,42.13899],[42.36252,42.11086],[42.40627,42.09525],[42.45481,42.09525],[42.49856,42.11086],[42.52883,42.13899],[42.53963,42.17407]]],[[[42.54239,42.21496],[42.53158,42.25004],[42.50129,42.27817],[42.45752,42.29378],[42.40894,42.29378],[42.36517,42.27817],[42.33488,42.25004],[42.32407,42.21496],[42.33488,42.17988],[42.36517,42.15175],[42.40894,42.13614],[42.45752,42.13614],[42.50129,42.15175],[42.53158,42.17988],[42.54239,42.21496]]],[[[42.54025,42.26841],[42.52943,42.30349],[42.49912,42.33162],[42.45531,42.34723],[42.40669,42.34723],[42.36288,42.33162],[42.33257,42.30349],[42.32175,42.26841],[42.33257,42.23333],[42.36288,42.2052],[42.40669,42.18959],[42.45531,42.18959],[42.49912,42.2052],[42.52943,42.23333],[42.54025,42.26841]]],[[[42.53079,42.32432],[42.51996,42.3594],[42.48962,42.38753],[42.44577,42.40314],[42.39711,42.40314],[42.35326,42.38753],[42.32292,42.3594],[42.31209,42.32432],[42.32292,42.28924],[42.35326,42.26111],[42.39711,42.2455],[42.44577,42.2455],[42.48962,42.26111],[42.51996,42.28924],[42.53079,42.32432]]],[[[42.46428,42.34285],[42.45345,42.37793],[42.4231,42.40606],[42.37924,42.42167],[42.33056,42.42167],[42.2867,42.40606],[42.25635,42.37793],[42.24552,42.34285],[42.25635,42.30777],[42.2867,42.27964],[42.33056,42.26403],[42.37924,42.26403],[42.4231,42.27964],[42.45345,42.30777],[42.46428,42.34285]]],[[[42.46763,42.3793],[42.45679,42.41438],[42.42642,42.44251],[42.38253,42.45812],[42.33383,42.45812],[42.28994,42.44251],[42.25957,42.41438],[42.24873,42.3793],[42.25957,42.34422],[42.28994,42.31609],[42.33383,42.30048],[42.38253,42.30048],[42.42642,42.31609],[42.45679,42.34422],[42.46763,42.3793]]],[[[42.49119,42.43545],[42.48035,42.47053],[42.44995,42.49866],[42.40603,42.51427],[42.35727,42.51427],[42.31335,42.49866],[42.28295,42.47053],[42.27211,42.43545],[42.28295,42.40037],[42.31335,42.37224],[42.35727,42.35663],[42.40603,42.35663],[42.44995,42.37224],[42.48035,42.40037],[42.49119,42.43545]]],[[[42.48954,42.4255],[42.47869,42.46058],[42.4483,42.48871],[42.40438,42.50432],[42.35564,42.50432],[42.31172,42.48871],[42.28133,42.46058],[42.27048,42.4255],[42.28133,42.39042],[42.31172,42.36229],[42.35564,42.34668],[42.40438,42.34668],[42.4483,42.36229],[42.47869,42.39042],[42.48954,42.4255]]],[[[42.5008,42.38861],[42.48996,42.42369],[42.45959,42.45182],[42.4157,42.46743],[42.36698,42.46743],[42.32309,42.45182],[42.29272,42.42369],[42.28188,42.38861],[42.29272,42.35353],[42.32309,42.3254],[42.36698,42.30979],[42.4157,42.30979],[42.45959,42.3254],[42.48996,42.35353],[42.5008,42.38861]]],[[[42.56326,42.40454],[42.55242,42.43962],[42.52204,42.46775],[42.47813,42.48336],[42.42941,42.48336],[42.3855,42.46775],[42.35512,42.43962],[42.34428,42.40454],[42.35512,42.36946],[42.3855,42.34133],[42.42941,42.32572],[42.47813,42.32572],[42.52204,42.34133],[42.55242,42.36946],[42.56326,42.40454]]],[[[42.62585,42.42485],[42.615,42.45993],[42.58461,42.48806],[42.54069,42.50367],[42.49195,42.50367],[42.44803,42.48806],[42.41764,42.45993],[42.40679,42.42485],[42.41764,42.38977],[42.44803,42.36164],[42.49195,42.34603],[42.54069,42.34603],[42.58461,42.36164],[42.615,42.38977],[42.62585,42.42485]]],[[[42.66913,42.42603],[42.65828,42.46111],[42.62789,42.48924],[42.58397,42.50485],[42.53523,42.50485],[42.49131,42.48924],[42.46092,42.46111],[42.45007,42.42603],[42.46092,42.39095],[42.49131,42.36282],[42.53523,42.34721],[42.58397,42.34721],[42.62789,42.36282],[42.65828,42.39095],[42.66913,42.42603]]],[[[42.68084,42.40057],[42.67,42.43565],[42.63962,42.46378],[42.59572,42.47939],[42.547,42.47939],[42.5031,42.46378],[42.47272,42.43565],[42.46188,42.40057],[42.47272,42.36549],[42.5031,42.33736],[42.547,42.32175],[42.59572,42.32175],[42.63962,42.33736],[42.67,42.36549],[42.68084,42.40057]]],[[[42.70579,42.38314],[42.69495,42.41822],[42.66458,42.44635],[42.6207,42.46196],[42.57198,42.46196],[42.5281,42.44635],[42.49773,42.41822],[42.48689,42.38314],[42.49773,42.34806],[42.5281,42.31993],[42.57198,42.30432],[42.6207,42.30432],[42.66458,42.31993],[42.69495,42.34806],[42.70579,42.38314]]],[[[42.70692,42.34043],[42.69609,42.37551],[42.66574,42.40364],[42.62188,42.41925],[42.5732,42.41925],[42.52934,42.40364],[42.49899,42.37551],[42.48816,42.34043],[42.49899,42.30535],[42.52934,42.27722],[42.5732,42.26161],[42.62188,42.26161],[42.66574,42.27722],[42.69609,42.30535],[42.70692,42.34043]]],[[[42.71559,42.2892],[42.70477,42.32428],[42.67444,42.35241],[42.63062,42.36802],[42.58198,42.36802],[42.53816,42.35241],[42.50783,42.32428],[42.49701,42.2892],[42.50783,42.25412],[42.53816,42.22599],[42.58198,42.21038],[42.63062,42.21038],[42.67444,42.22599],[42.70477,42.25412],[42.71559,42.2892]]],[[[42.78296,42.27027],[42.77214,42.30535],[42.74182,42.33348],[42.69801,42.34909],[42.64939,42.34909],[42.60558,42.33348],[42.57526,42.30535],[42.56444,42.27027],[42.57526,42.23519],[42.60558,42.20706],[42.64939,42.19145],[42.69801,42.19145],[42.74182,42.20706],[42.77214,42.23519],[42.78296,42.27027]]],[[[42.8439,42.28122],[42.83307,42.3163],[42.80275,42.34443],[42.75894,42.36004],[42.7103,42.36004],[42.66649,42.34443],[42.63617,42.3163],[42.62534,42.28122],[42.63617,42.24614],[42.66649,42.21801],[42.7103,42.2024],[42.75894,42.2024],[42.80275,42.21801],[42.83307,42.24614],[42.8439,42.28122]]],[[[42.86732,42.29988],[42.85649,42.33496],[42.82616,42.36309],[42.78233,42.3787],[42.73369,42.3787],[42.68986,42.36309],[42.65953,42.33496],[42.6487,42.29988],[42.65953,42.2648],[42.68986,42.23667],[42.73369,42.22106],[42.78233,42.22106],[42.82616,42.23667],[42.85649,42.2648],[42.86732,42.29988]]],[[[42.84613,42.28108],[42.8353,42.31616],[42.80498,42.34429],[42.76117,42.3599],[42.71253,42.3599],[42.66872,42.34429],[42.6384,42.31616],[42.62757,42.28108],[42.6384,42.246],[42.66872,42.21787],[42.71253,42.20226],[42.76117,42.20226],[42.80498,42.21787],[42.8353,42.246],[42.84613,42.28108]]],[[[42.81958,42.26969],[42.80876,42.30477],[42.77844,42.3329],[42.73463,42.34851],[42.68601,42.34851],[42.6422,42.3329],[42.61188,42.30477],[42.60106,42.26969],[42.61188,42.23461],[42.6422,42.20648],[42.68601,42.19087],[42.73463,42.19087],[42.77844,42.20648],[42.80876,42.23461],[42.81958,42.26969]]],[[[42.82729,42.26784],[42.81647,42.30292],[42.78616,42.33105],[42.74235,42.34666],[42.69373,42.34666],[42.64992,42.33105],[42.61961,42.30292],[42.60879,42.26784],[42.61961,42.23276],[42.64992,42.20463],[42.69373,42.18902],[42.74235,42.18902],[42.78616,42.20463],[42.81647,42.23276],[42.82729,42.26784]]],[[[42.81241,42.2717],[42.80159,42.30678],[42.77127,42.33491],[42.72746,42.35052],[42.67884,42.35052],[42.63503,42.33491],[42.60471,42.30678],[42.59389,42.2717],[42.60471,42.23662],[42.63503,42.20849],[42.67884,42.19288],[42.72746,42.19288],[42.77127,42.20849],[42.80159,42.23662],[42.81241,42.2717]]],[[[42.81894,42.2487],[42.80812,42.28378],[42.77782,42.31191],[42.73402,42.32752],[42.68542,42.32752],[42.64162,42.31191],[42.61132,42.28378],[42.6005,42.2487],[42.61132,42.21362],[42.64162,42.18549],[42.68542,42.16988],[42.73402,42.16988],[42.77782,42.18549],[42.80812,42.21362],[42.81894,42.2487]]],[[[42.82781,42.19837],[42.81701,42.23345],[42.78672,42.26158],[42.74296,42.27719],[42.6944,42.27719],[42.65064,42.26158],[42.62035,42.23345],[42.60955,42.19837],[42.62035,42.16329],[42.65064,42.13516],[42.6944,42.11955],[42.74296,42.11955],[42.78672,42.13516],[42.81701,42.16329],[42.82781,42.19837]]],[[[42.87088,42.14855],[42.86008,42.18363],[42.82982,42.21176],[42.7861,42.22737],[42.73756,42.22737],[42.69384,42.21176],[42.66358,42.18363],[42.65278,42.14855],[42.66358,42.11347],[42.69384,42.08534],[42.73756,42.06973],[42.7861,42.06973],[42.82982,42.08534],[42.86008,42.11347],[42.87088,42.14855]]],[[[42.91957,42.10764],[42.90877,42.14272],[42.87854,42.17085],[42.83484,42.18646],[42.78634,42.18646],[42.74264,42.17085],[42.71241,42.14272],[42.70161,42.10764],[42.71241,42.07256],[42.74264,42.04443],[42.78634,42.02882],[42.83484,42.02882],[42.87854,42.04443],[42.90877,42.07256],[42.91957,42.10764]]],[[[42.93159,42.05682],[42.92081,42.0919],[42.89059,42.12003],[42.84693,42.13564],[42.79847,42.13564],[42.75481,42.12003],[42.72459,42.0919],[42.71381,42.05682],[42.72459,42.02174],[42.75481,41.99361],[42.79847,41.978],[42.84693,41.978],[42.89059,41.99361],[42.92081,42.02174],[42.93159,42.05682]]],[[[42.95284,42.0119],[42.94207,42.04698],[42.91187,42.07511],[42.86824,42.09072],[42.81982,42.09072],[42.77619,42.07511],[42.74599,42.04698],[42.73522,42.0119],[42.74599,41.97682],[42.77619,41.94869],[42.81982,41.93308],[42.86824,41.93308],[42.91187,41.94869],[42.94207,41.97682],[42.95284,42.0119]]],[[[43.0057,41.99022],[42.99492,42.0253],[42.96474,42.05343],[42.92112,42.06904],[42.87272,42.06904],[42.8291,42.05343],[42.79892,42.0253],[42.78814,41.99022],[42.79892,41.95514],[42.8291,41.92701],[42.87272,41.9114],[42.92112,41.9114],[42.96474,41.92701],[42.99492,41.95514],[43.0057,41.99022]]],[[[43.02537,41.95446],[43.01461,41.98954],[42.98444,42.01767],[42.94085,42.03328],[42.89247,42.03328],[42.84888,42.01767],[42.81871,41.98954],[42.80795,41.95446],[42.81871,41.91938],[42.84888,41.89125],[42.89247,41.87564],[42.94085,41.87564],[42.98444,41.89125],[43.01461,41.91938],[43.02537,41.95446]]],[[[42.99719,41.91611],[42.98643,41.95119],[42.95628,41.97932],[42.91272,41.99493],[42.86436,41.99493],[42.8208,41.97932],[42.79065,41.95119],[42.77989,41.91611],[42.79065,41.88103],[42.8208,41.8529],[42.86436,41.83729],[42.91272,41.83729],[42.95628,41.8529],[42.98643,41.88103],[42.99719,41.91611]]],[[[42.98938,41.87556],[42.97863,41.91064],[42.9485,41.93877],[42.90496,41.95438],[42.85664,41.95438],[42.8131,41.93877],[42.78297,41.91064],[42.77222,41.87556],[42.78297,41.84048],[42.8131,41.81235],[42.85664,41.79674],[42.90496,41.79674],[42.9485,41.81235],[42.97863,41.84048],[42.98938,41.87556]]],[[[42.98386,41.84836],[42.97312,41.88344],[42.943,41.91157],[42.89948,41.92718],[42.85118,41.92718],[42.80766,41.91157],[42.77754,41.88344],[42.7668,41.84836],[42.77754,41.81328],[42.80766,41.78515],[42.85118,41.76954],[42.89948,41.76954],[42.943,41.78515],[42.97312,41.81328],[42.98386,41.84836]]],[[[42.96999,41.83686],[42.95925,41.87194],[42.92914,41.90007],[42.88563,41.91568],[42.83733,41.91568],[42.79382,41.90007],[42.76371,41.87194],[42.75297,41.83686],[42.76371,41.80178],[42.79382,41.77365],[42.83733,41.75804],[42.88563,41.75804],[42.92914,41.77365],[42.95925,41.80178],[42.96999,41.83686]]],[[[42.96055,41.82177],[42.9498,41.85685],[42.9197,41.88498],[42.8762,41.90059],[42.82792,41.90059],[42.78442,41.88498],[42.75432,41.85685],[42.74357,41.82177],[42.75432,41.78669],[42.78442,41.75856],[42.82792,41.74295],[42.8762,41.74295],[42.9197,41.75856],[42.9498,41.78669],[42.96055,41.82177]]],[[[42.94928,41.79213],[42.93854,41.82721],[42.90845,41.85534],[42.86497,41.87095],[42.81671,41.87095],[42.77323,41.85534],[42.74314,41.82721],[42.7324,41.79213],[42.74314,41.75705],[42.77323,41.72892],[42.81671,41.71331],[42.86497,41.71331],[42.90845,41.72892],[42.93854,41.75705],[42.94928,41.79213]]],[[[42.94165,41.7645],[42.93092,41.79958],[42.90084,41.82771],[42.85738,41.84332],[42.80914,41.84332],[42.76568,41.82771],[42.7356,41.79958],[42.72487,41.7645],[42.7356,41.72942],[42.76568,41.70129],[42.80914,41.68568],[42.85738,41.68568],[42.90084,41.70129],[42.93092,41.72942],[42.94165,41.7645]]],[[[42.95133,41.71524],[42.9406,41.75032],[42.91055,41.77845],[42.86712,41.79406],[42.81892,41.79406],[42.77549,41.77845],[42.74544,41.75032],[42.73471,41.71524],[42.74544,41.68016],[42.77549,41.65203],[42.81892,41.63642],[42.86712,41.63642],[42.91055,41.65203],[42.9406,41.68016],[42.95133,41.71524]]],[[[42.9364,41.66184],[42.92568,41.69692],[42.89565,41.72505],[42.85226,41.74066],[42.8041,41.74066],[42.76071,41.72505],[42.73068,41.69692],[42.71996,41.66184],[42.73068,41.62676],[42.76071,41.59863],[42.8041,41.58302],[42.85226,41.58302],[42.89565,41.59863],[42.92568,41.62676],[42.9364,41.66184]]],[[[42.98714,41.6516],[42.97643,41.68668],[42.9464,41.71481],[42.90302,41.73042],[42.85486,41.73042],[42.81148,41.71481],[42.78145,41.68668],[42.77074,41.6516],[42.78145,41.61652],[42.81148,41.58839],[42.85486,41.57278],[42.90302,41.57278],[42.9464,41.58839],[42.97643,41.61652],[42.98714,41.6516]]],[[[43.05897,41.64487],[43.04826,41.67995],[43.01824,41.70808],[42.97485,41.72369],[42.92671,41.72369],[42.88332,41.70808],[42.8533,41.67995],[42.84259,41.64487],[42.8533,41.60979],[42.88332,41.58166],[42.92671,41.56605],[42.97485,41.56605],[43.01824,41.58166],[43.04826,41.60979],[43.05897,41.64487]]],[[[43.11505,41.63878],[43.10434,41.67386],[43.07432,41.70199],[43.03094,41.7176],[42.9828,41.7176],[42.93942,41.70199],[42.9094,41.67386],[42.89869,41.63878],[42.9094,41.6037],[42.93942,41.57557],[42.9828,41.55996],[43.03094,41.55996],[43.07432,41.57557],[43.10434,41.6037],[43.11505,41.63878]]],[[[43.16825,41.62248],[43.15754,41.65756],[43.12753,41.68569],[43.08417,41.7013],[43.03603,41.7013],[42.99267,41.68569],[42.96266,41.65756],[42.95195,41.62248],[42.96266,41.5874],[42.99267,41.55927],[43.03603,41.54366],[43.08417,41.54366],[43.12753,41.55927],[43.15754,41.5874],[43.16825,41.62248]]],[[[43.20826,41.61403],[43.19755,41.64911],[43.16754,41.67724],[43.12418,41.69285],[43.07606,41.69285],[43.0327,41.67724],[43.00269,41.64911],[42.99198,41.61403],[43.00269,41.57895],[43.0327,41.55082],[43.07606,41.53521],[43.12418,41.53521],[43.16754,41.55082],[43.19755,41.57895],[43.20826,41.61403]]],[[[43.25683,41.60182],[43.24612,41.6369],[43.21612,41.66503],[43.17277,41.68064],[43.12465,41.68064],[43.0813,41.66503],[43.0513,41.6369],[43.04059,41.60182],[43.0513,41.56674],[43.0813,41.53861],[43.12465,41.523],[43.17277,41.523],[43.21612,41.53861],[43.24612,41.56674],[43.25683,41.60182]]],[[[43.32161,41.59481],[43.3109,41.62989],[43.2809,41.65802],[43.23756,41.67363],[43.18944,41.67363],[43.1461,41.65802],[43.1161,41.62989],[43.10539,41.59481],[43.1161,41.55973],[43.1461,41.5316],[43.18944,41.51599],[43.23756,41.51599],[43.2809,41.5316],[43.3109,41.55973],[43.32161,41.59481]]],[[[43.36454,41.56698],[43.35384,41.60206],[43.32385,41.63019],[43.28053,41.6458],[43.23243,41.6458],[43.18911,41.63019],[43.15912,41.60206],[43.14842,41.56698],[43.15912,41.5319],[43.18911,41.50377],[43.23243,41.48816],[43.28053,41.48816],[43.32385,41.50377],[43.35384,41.5319],[43.36454,41.56698]]],[[[43.36792,41.52654],[43.35723,41.56162],[43.32726,41.58975],[43.28396,41.60536],[43.2359,41.60536],[43.1926,41.58975],[43.16263,41.56162],[43.15194,41.52654],[43.16263,41.49146],[43.1926,41.46333],[43.2359,41.44772],[43.28396,41.44772],[43.32726,41.46333],[43.35723,41.49146],[43.36792,41.52654]]],[[[43.38855,41.48123],[43.37786,41.51631],[43.34791,41.54444],[43.30464,41.56005],[43.25662,41.56005],[43.21335,41.54444],[43.1834,41.51631],[43.17271,41.48123],[43.1834,41.44615],[43.21335,41.41802],[43.25662,41.40241],[43.30464,41.40241],[43.34791,41.41802],[43.37786,41.44615],[43.38855,41.48123]]],[[[43.41982,41.43973],[43.40914,41.47481],[43.37921,41.50294],[43.33597,41.51855],[43.28797,41.51855],[43.24473,41.50294],[43.2148,41.47481],[43.20412,41.43973],[43.2148,41.40465],[43.24473,41.37652],[43.28797,41.36091],[43.33597,41.36091],[43.37921,41.37652],[43.40914,41.40465],[43.41982,41.43973]]],[[[43.42608,41.39297],[43.41541,41.42805],[43.3855,41.45618],[43.34229,41.47179],[43.29433,41.47179],[43.25112,41.45618],[43.22121,41.42805],[43.21054,41.39297],[43.22121,41.35789],[43.25112,41.32976],[43.29433,41.31415],[43.34229,41.31415],[43.3855,41.32976],[43.41541,41.35789],[43.42608,41.39297]]],[[[43.40076,41.37917],[43.39009,41.41425],[43.36019,41.44238],[43.31699,41.45799],[43.26903,41.45799],[43.22583,41.44238],[43.19593,41.41425],[43.18526,41.37917],[43.19593,41.34409],[43.22583,41.31596],[43.26903,41.30035],[43.31699,41.30035],[43.36019,41.31596],[43.39009,41.34409],[43.40076,41.37917]]],[[[43.43229,41.41787],[43.42161,41.45295],[43.3917,41.48108],[43.34847,41.49669],[43.30049,41.49669],[43.25726,41.48108],[43.22735,41.45295],[43.21667,41.41787],[43.22735,41.38279],[43.25726,41.35466],[43.30049,41.33905],[43.34847,41.33905],[43.3917,41.35466],[43.42161,41.38279],[43.43229,41.41787]]],[[[43.40091,41.46358],[43.39022,41.49866],[43.36029,41.52679],[43.31703,41.5424],[43.26901,41.5424],[43.22575,41.52679],[43.19582,41.49866],[43.18513,41.46358],[43.19582,41.4285],[43.22575,41.40037],[43.26901,41.38476],[43.31703,41.38476],[43.36029,41.40037],[43.39022,41.4285],[43.40091,41.46358]]],[[[43.36916,41.50725],[43.35847,41.54233],[43.32851,41.57046],[43.28522,41.58607],[43.23718,41.58607],[43.19389,41.57046],[43.16393,41.54233],[43.15324,41.50725],[43.16393,41.47217],[43.19389,41.44404],[43.23718,41.42843],[43.28522,41.42843],[43.32851,41.44404],[43.35847,41.47217],[43.36916,41.50725]]],[[[43.37692,41.55592],[43.36622,41.591],[43.33624,41.61913],[43.29292,41.63474],[43.24484,41.63474],[43.20152,41.61913],[43.17154,41.591],[43.16084,41.55592],[43.17154,41.52084],[43.20152,41.49271],[43.24484,41.4771],[43.29292,41.4771],[43.33624,41.49271],[43.36622,41.52084],[43.37692,41.55592]]],[[[43.33978,41.5892],[43.32907,41.62428],[43.29908,41.65241],[43.25573,41.66802],[43.20763,41.66802],[43.16428,41.65241],[43.13429,41.62428],[43.12358,41.5892],[43.13429,41.55412],[43.16428,41.52599],[43.20763,41.51038],[43.25573,41.51038],[43.29908,41.52599],[43.32907,41.55412],[43.33978,41.5892]]],[[[43.27587,41.59399],[43.26517,41.62907],[43.23517,41.6572],[43.19183,41.67281],[43.14371,41.67281],[43.10037,41.6572],[43.07037,41.62907],[43.05967,41.59399],[43.07037,41.55891],[43.10037,41.53078],[43.14371,41.51517],[43.19183,41.51517],[43.23517,41.53078],[43.26517,41.55891],[43.27587,41.59399]]],[[[43.22577,41.61546],[43.21506,41.65054],[43.18505,41.67867],[43.14169,41.69428],[43.09357,41.69428],[43.05021,41.67867],[43.0202,41.65054],[43.00949,41.61546],[43.0202,41.58038],[43.05021,41.55225],[43.09357,41.53664],[43.14169,41.53664],[43.18505,41.55225],[43.21506,41.58038],[43.22577,41.61546]]],[[[43.17306,41.61338],[43.16235,41.64846],[43.13234,41.67659],[43.08898,41.6922],[43.04086,41.6922],[42.9975,41.67659],[42.96749,41.64846],[42.95678,41.61338],[42.96749,41.5783],[42.9975,41.55017],[43.04086,41.53456],[43.08898,41.53456],[43.13234,41.55017],[43.16235,41.5783],[43.17306,41.61338]]],[[[43.13874,41.6395],[43.12803,41.67458],[43.09801,41.70271],[43.05463,41.71832],[43.00649,41.71832],[42.96311,41.70271],[42.93309,41.67458],[42.92238,41.6395],[42.93309,41.60442],[42.96311,41.57629],[43.00649,41.56068],[43.05463,41.56068],[43.09801,41.57629],[43.12803,41.60442],[43.13874,41.6395]]],[[[43.09004,41.64232],[43.07932,41.6774],[43.0493,41.70553],[43.00592,41.72114],[42.95778,41.72114],[42.9144,41.70553],[42.88438,41.6774],[42.87366,41.64232],[42.88438,41.60724],[42.9144,41.57911],[42.95778,41.5635],[43.00592,41.5635],[43.0493,41.57911],[43.07932,41.60724],[43.09004,41.64232]]],[[[43.15139,41.66432],[43.14068,41.6994],[43.11065,41.72753],[43.06725,41.74314],[43.01909,41.74314],[42.97569,41.72753],[42.94566,41.6994],[42.93495,41.66432],[42.94566,41.62924],[42.97569,41.60111],[43.01909,41.5855],[43.06725,41.5855],[43.11065,41.60111],[43.14068,41.62924],[43.15139,41.66432]]],[[[43.19318,41.69279],[43.18246,41.72787],[43.15242,41.756],[43.109,41.77161],[43.06082,41.77161],[43.0174,41.756],[42.98736,41.72787],[42.97664,41.69279],[42.98736,41.65771],[43.0174,41.62958],[43.06082,41.61397],[43.109,41.61397],[43.15242,41.62958],[43.18246,41.65771],[43.19318,41.69279]]],[[[43.25061,41.70755],[43.23988,41.74263],[43.20983,41.77076],[43.16641,41.78637],[43.11821,41.78637],[43.07479,41.77076],[43.04474,41.74263],[43.03401,41.70755],[43.04474,41.67247],[43.07479,41.64434],[43.11821,41.62873],[43.16641,41.62873],[43.20983,41.64434],[43.23988,41.67247],[43.25061,41.70755]]],[[[43.29633,41.74528],[43.2856,41.78036],[43.25553,41.80849],[43.21208,41.8241],[43.16386,41.8241],[43.12041,41.80849],[43.09034,41.78036],[43.07961,41.74528],[43.09034,41.7102],[43.12041,41.68207],[43.16386,41.66646],[43.21208,41.66646],[43.25553,41.68207],[43.2856,41.7102],[43.29633,41.74528]]],[[[43.355,41.76577],[43.34427,41.80085],[43.31419,41.82898],[43.27073,41.84459],[43.22249,41.84459],[43.17903,41.82898],[43.14895,41.80085],[43.13822,41.76577],[43.14895,41.73069],[43.17903,41.70256],[43.22249,41.68695],[43.27073,41.68695],[43.31419,41.70256],[43.34427,41.73069],[43.355,41.76577]]],[[[43.40375,41.77907],[43.39301,41.81415],[43.36293,41.84228],[43.31945,41.85789],[43.27121,41.85789],[43.22773,41.84228],[43.19765,41.81415],[43.18691,41.77907],[43.19765,41.74399],[43.22773,41.71586],[43.27121,41.70025],[43.31945,41.70025],[43.36293,41.71586],[43.39301,41.74399],[43.40375,41.77907]]],[[[43.44856,41.81417],[43.43781,41.84925],[43.40771,41.87738],[43.36422,41.89299],[43.31594,41.89299],[43.27245,41.87738],[43.24235,41.84925],[43.2316,41.81417],[43.24235,41.77909],[43.27245,41.75096],[43.31594,41.73535],[43.36422,41.73535],[43.40771,41.75096],[43.43781,41.77909],[43.44856,41.81417]]],[[[43.49061,41.83926],[43.47986,41.87434],[43.44975,41.90247],[43.40624,41.91808],[43.35794,41.91808],[43.31443,41.90247],[43.28432,41.87434],[43.27357,41.83926],[43.28432,41.80418],[43.31443,41.77605],[43.35794,41.76044],[43.40624,41.76044],[43.44975,41.77605],[43.47986,41.80418],[43.49061,41.83926]]],[[[43.48871,41.84001],[43.47796,41.87509],[43.44785,41.90322],[43.40434,41.91883],[43.35604,41.91883],[43.31253,41.90322],[43.28242,41.87509],[43.27167,41.84001],[43.28242,41.80493],[43.31253,41.7768],[43.35604,41.76119],[43.40434,41.76119],[43.44785,41.7768],[43.47796,41.80493],[43.48871,41.84001]]],[[[43.42047,41.80948],[43.40973,41.84456],[43.37963,41.87269],[43.33614,41.8883],[43.28786,41.8883],[43.24437,41.87269],[43.21427,41.84456],[43.20353,41.80948],[43.21427,41.7744],[43.24437,41.74627],[43.28786,41.73066],[43.33614,41.73066],[43.37963,41.74627],[43.40973,41.7744],[43.42047,41.80948]]],[[[43.46575,41.82867],[43.45501,41.86375],[43.4249,41.89188],[43.38139,41.90749],[43.33311,41.90749],[43.2896,41.89188],[43.25949,41.86375],[43.24875,41.82867],[43.25949,41.79359],[43.2896,41.76546],[43.33311,41.74985],[43.38139,41.74985],[43.4249,41.76546],[43.45501,41.79359],[43.46575,41.82867]]],[[[43.50713,41.84592],[43.49638,41.881],[43.46627,41.90913],[43.42275,41.92474],[43.37445,41.92474],[43.33093,41.90913],[43.30082,41.881],[43.29007,41.84592],[43.30082,41.81084],[43.33093,41.78271],[43.37445,41.7671],[43.42275,41.7671],[43.46627,41.78271],[43.49638,41.81084],[43.50713,41.84592]]],[[[43.53844,41.87962],[43.52768,41.9147],[43.49755,41.94283],[43.45401,41.95844],[43.40569,41.95844],[43.36215,41.94283],[43.33202,41.9147],[43.32126,41.87962],[43.33202,41.84454],[43.36215,41.81641],[43.40569,41.8008],[43.45401,41.8008],[43.49755,41.81641],[43.52768,41.84454],[43.53844,41.87962]]],[[[43.5814,41.91299],[43.57064,41.94807],[43.5405,41.9762],[43.49694,41.99181],[43.44858,41.99181],[43.40502,41.9762],[43.37488,41.94807],[43.36412,41.91299],[43.37488,41.87791],[43.40502,41.84978],[43.44858,41.83417],[43.49694,41.83417],[43.5405,41.84978],[43.57064,41.87791],[43.5814,41.91299]]],[[[43.61767,41.95359],[43.60691,41.98867],[43.57674,42.0168],[43.53315,42.03241],[43.48477,42.03241],[43.44118,42.0168],[43.41101,41.98867],[43.40025,41.95359],[43.41101,41.91851],[43.44118,41.89038],[43.48477,41.87477],[43.53315,41.87477],[43.57674,41.89038],[43.60691,41.91851],[43.61767,41.95359]]],[[[43.70262,41.98572],[43.69185,42.0208],[43.66167,42.04893],[43.61805,42.06454],[43.56965,42.06454],[43.52603,42.04893],[43.49585,42.0208],[43.48508,41.98572],[43.49585,41.95064],[43.52603,41.92251],[43.56965,41.9069],[43.61805,41.9069],[43.66167,41.92251],[43.69185,41.95064],[43.70262,41.98572]]],[[[43.78652,42.0043],[43.77574,42.03938],[43.74556,42.06751],[43.70193,42.08312],[43.65351,42.08312],[43.60988,42.06751],[43.5797,42.03938],[43.56892,42.0043],[43.5797,41.96922],[43.60988,41.94109],[43.65351,41.92548],[43.70193,41.92548],[43.74556,41.94109],[43.77574,41.96922],[43.78652,42.0043]]],[[[43.8576,42.02162],[43.84682,42.0567],[43.81662,42.08483],[43.77299,42.10044],[43.72455,42.10044],[43.68092,42.08483],[43.65072,42.0567],[43.63994,42.02162],[43.65072,41.98654],[43.68092,41.95841],[43.72455,41.9428],[43.77299,41.9428],[43.81662,41.95841],[43.84682,41.98654],[43.8576,42.02162]]],[[[43.92861,42.02806],[43.91783,42.06314],[43.88763,42.09127],[43.84399,42.10688],[43.79555,42.10688],[43.75191,42.09127],[43.72171,42.06314],[43.71093,42.02806],[43.72171,41.99298],[43.75191,41.96485],[43.79555,41.94924],[43.84399,41.94924],[43.88763,41.96485],[43.91783,41.99298],[43.92861,42.02806]]],[[[43.98419,42.05855],[43.97341,42.09363],[43.94319,42.12176],[43.89953,42.13737],[43.85107,42.13737],[43.80741,42.12176],[43.77719,42.09363],[43.76641,42.05855],[43.77719,42.02347],[43.80741,41.99534],[43.85107,41.97973],[43.89953,41.97973],[43.94319,41.99534],[43.97341,42.02347],[43.98419,42.05855]]],[[[44.05333,42.03358],[44.04255,42.06866],[44.01235,42.09679],[43.9687,42.1124],[43.92026,42.1124],[43.87661,42.09679],[43.84641,42.06866],[43.83563,42.03358],[43.84641,41.9985],[43.87661,41.97037],[43.92026,41.95476],[43.9687,41.95476],[44.01235,41.97037],[44.04255,41.9985],[44.05333,42.03358]]],[[[44.13381,42.01743],[44.12303,42.05251],[44.09284,42.08064],[44.04921,42.09625],[44.00077,42.09625],[43.95714,42.08064],[43.92695,42.05251],[43.91617,42.01743],[43.92695,41.98235],[43.95714,41.95422],[44.00077,41.93861],[44.04921,41.93861],[44.09284,41.95422],[44.12303,41.98235],[44.13381,42.01743]]],[[[44.1902,41.99245],[44.17943,42.02753],[44.14924,42.05566],[44.10563,42.07127],[44.05721,42.07127],[44.0136,42.05566],[43.98341,42.02753],[43.97264,41.99245],[43.98341,41.95737],[44.0136,41.92924],[44.05721,41.91363],[44.10563,41.91363],[44.14924,41.92924],[44.17943,41.95737],[44.1902,41.99245]]],[[[44.2286,41.96562],[44.21784,42.0007],[44.18766,42.02883],[44.14407,42.04444],[44.09567,42.04444],[44.05208,42.02883],[44.0219,42.0007],[44.01114,41.96562],[44.0219,41.93054],[44.05208,41.90241],[44.09567,41.8868],[44.14407,41.8868],[44.18766,41.90241],[44.21784,41.93054],[44.2286,41.96562]]],[[[44.30437,41.94702],[44.29361,41.9821],[44.26344,42.01023],[44.21986,42.02584],[44.17148,42.02584],[44.1279,42.01023],[44.09773,41.9821],[44.08697,41.94702],[44.09773,41.91194],[44.1279,41.88381],[44.17148,41.8682],[44.21986,41.8682],[44.26344,41.88381],[44.29361,41.91194],[44.30437,41.94702]]],[[[44.37352,41.94167],[44.36276,41.97675],[44.3326,42.00488],[44.28902,42.02049],[44.24064,42.02049],[44.19706,42.00488],[44.1669,41.97675],[44.15614,41.94167],[44.1669,41.90659],[44.19706,41.87846],[44.24064,41.86285],[44.28902,41.86285],[44.3326,41.87846],[44.36276,41.90659],[44.37352,41.94167]]],[[[44.41721,41.91509],[44.40645,41.95017],[44.3763,41.9783],[44.33274,41.99391],[44.28438,41.99391],[44.24082,41.9783],[44.21067,41.95017],[44.19991,41.91509],[44.21067,41.88001],[44.24082,41.85188],[44.28438,41.83627],[44.33274,41.83627],[44.3763,41.85188],[44.40645,41.88001],[44.41721,41.91509]]],[[[44.44225,41.87741],[44.4315,41.91249],[44.40137,41.94062],[44.35783,41.95623],[44.30951,41.95623],[44.26597,41.94062],[44.23584,41.91249],[44.22509,41.87741],[44.23584,41.84233],[44.26597,41.8142],[44.30951,41.79859],[44.35783,41.79859],[44.40137,41.8142],[44.4315,41.84233],[44.44225,41.87741]]],[[[44.39876,41.85317],[44.38801,41.88825],[44.35789,41.91638],[44.31437,41.93199],[44.26607,41.93199],[44.22255,41.91638],[44.19243,41.88825],[44.18168,41.85317],[44.19243,41.81809],[44.22255,41.78996],[44.26607,41.77435],[44.31437,41.77435],[44.35789,41.78996],[44.38801,41.81809],[44.39876,41.85317]]],[[[44.35248,41.84976],[44.34173,41.88484],[44.31161,41.91297],[44.26809,41.92858],[44.21979,41.92858],[44.17627,41.91297],[44.14615,41.88484],[44.1354,41.84976],[44.14615,41.81468],[44.17627,41.78655],[44.21979,41.77094],[44.26809,41.77094],[44.31161,41.78655],[44.34173,41.81468],[44.35248,41.84976]]],[[[44.307,41.85212],[44.29625,41.8872],[44.26613,41.91533],[44.22261,41.93094],[44.17431,41.93094],[44.13079,41.91533],[44.10067,41.8872],[44.08992,41.85212],[44.10067,41.81704],[44.13079,41.78891],[44.17431,41.7733],[44.22261,41.7733],[44.26613,41.78891],[44.29625,41.81704],[44.307,41.85212]]],[[[44.34368,41.85895],[44.33293,41.89403],[44.30281,41.92216],[44.25928,41.93777],[44.21098,41.93777],[44.16745,41.92216],[44.13733,41.89403],[44.12658,41.85895],[44.13733,41.82387],[44.16745,41.79574],[44.21098,41.78013],[44.25928,41.78013],[44.30281,41.79574],[44.33293,41.82387],[44.34368,41.85895]]],[[[44.38389,41.85011],[44.37314,41.88519],[44.34302,41.91332],[44.2995,41.92893],[44.2512,41.92893],[44.20768,41.91332],[44.17756,41.88519],[44.16681,41.85011],[44.17756,41.81503],[44.20768,41.7869],[44.2512,41.77129],[44.2995,41.77129],[44.34302,41.7869],[44.37314,41.81503],[44.38389,41.85011]]],[[[44.43646,41.86912],[44.42571,41.9042],[44.39558,41.93233],[44.35205,41.94794],[44.30373,41.94794],[44.2602,41.93233],[44.23007,41.9042],[44.21932,41.86912],[44.23007,41.83404],[44.2602,41.80591],[44.30373,41.7903],[44.35205,41.7903],[44.39558,41.80591],[44.42571,41.83404],[44.43646,41.86912]]],[[[44.48238,41.88283],[44.47163,41.91791],[44.4415,41.94604],[44.39795,41.96165],[44.34963,41.96165],[44.30608,41.94604],[44.27595,41.91791],[44.2652,41.88283],[44.27595,41.84775],[44.30608,41.81962],[44.34963,41.80401],[44.39795,41.80401],[44.4415,41.81962],[44.47163,41.84775],[44.48238,41.88283]]],[[[44.55344,41.86113],[44.54268,41.89621],[44.51256,41.92434],[44.46904,41.93995],[44.42072,41.93995],[44.3772,41.92434],[44.34708,41.89621],[44.33632,41.86113],[44.34708,41.82605],[44.3772,41.79792],[44.42072,41.78231],[44.46904,41.78231],[44.51256,41.79792],[44.54268,41.82605],[44.55344,41.86113]]],[[[44.62103,41.8506],[44.61028,41.88568],[44.58016,41.91381],[44.53664,41.92942],[44.48834,41.92942],[44.44482,41.91381],[44.4147,41.88568],[44.40395,41.8506],[44.4147,41.81552],[44.44482,41.78739],[44.48834,41.77178],[44.53664,41.77178],[44.58016,41.78739],[44.61028,41.81552],[44.62103,41.8506]]],[[[44.69104,41.83945],[44.68029,41.87453],[44.65018,41.90266],[44.60667,41.91827],[44.55837,41.91827],[44.51486,41.90266],[44.48475,41.87453],[44.474,41.83945],[44.48475,41.80437],[44.51486,41.77624],[44.55837,41.76063],[44.60667,41.76063],[44.65018,41.77624],[44.68029,41.80437],[44.69104,41.83945]]],[[[44.7587,41.84057],[44.74795,41.87565],[44.71784,41.90378],[44.67433,41.91939],[44.62603,41.91939],[44.58252,41.90378],[44.55241,41.87565],[44.54166,41.84057],[44.55241,41.80549],[44.58252,41.77736],[44.62603,41.76175],[44.67433,41.76175],[44.71784,41.77736],[44.74795,41.80549],[44.7587,41.84057]]],[[[44.8297,41.83936],[44.81895,41.87444],[44.78884,41.90257],[44.74533,41.91818],[44.69703,41.91818],[44.65352,41.90257],[44.62341,41.87444],[44.61266,41.83936],[44.62341,41.80428],[44.65352,41.77615],[44.69703,41.76054],[44.74533,41.76054],[44.78884,41.77615],[44.81895,41.80428],[44.8297,41.83936]]],[[[44.87941,41.81721],[44.86867,41.85229],[44.83857,41.88042],[44.79507,41.89603],[44.74679,41.89603],[44.70329,41.88042],[44.67319,41.85229],[44.66245,41.81721],[44.67319,41.78213],[44.70329,41.754],[44.74679,41.73839],[44.79507,41.73839],[44.83857,41.754],[44.86867,41.78213],[44.87941,41.81721]]],[[[44.87678,41.75871],[44.86605,41.79379],[44.83597,41.82192],[44.79252,41.83753],[44.74428,41.83753],[44.70083,41.82192],[44.67075,41.79379],[44.66002,41.75871],[44.67075,41.72363],[44.70083,41.6955],[44.74428,41.67989],[44.79252,41.67989],[44.83597,41.6955],[44.86605,41.72363],[44.87678,41.75871]]],[[[44.89963,41.70777],[44.8889,41.74285],[44.85885,41.77098],[44.81543,41.78659],[44.76723,41.78659],[44.72381,41.77098],[44.69376,41.74285],[44.68303,41.70777],[44.69376,41.67269],[44.72381,41.64456],[44.76723,41.62895],[44.81543,41.62895],[44.85885,41.64456],[44.8889,41.67269],[44.89963,41.70777]]],[[[44.94144,41.70868],[44.93071,41.74376],[44.90066,41.77189],[44.85724,41.7875],[44.80904,41.7875],[44.76562,41.77189],[44.73557,41.74376],[44.72484,41.70868],[44.73557,41.6736],[44.76562,41.64547],[44.80904,41.62986],[44.85724,41.62986],[44.90066,41.64547],[44.93071,41.6736],[44.94144,41.70868]]],[[[44.99237,41.68408],[44.98165,41.71916],[44.95161,41.74729],[44.9082,41.7629],[44.86002,41.7629],[44.81661,41.74729],[44.78657,41.71916],[44.77585,41.68408],[44.78657,41.649],[44.81661,41.62087],[44.86002,41.60526],[44.9082,41.60526],[44.95161,41.62087],[44.98165,41.649],[44.99237,41.68408]]],[[[45.0615,41.68548],[45.05078,41.72056],[45.02074,41.74869],[44.97733,41.7643],[44.92915,41.7643],[44.88574,41.74869],[44.8557,41.72056],[44.84498,41.68548],[44.8557,41.6504],[44.88574,41.62227],[44.92915,41.60666],[44.97733,41.60666],[45.02074,41.62227],[45.05078,41.6504],[45.0615,41.68548]]],[[[45.06314,41.66904],[45.05242,41.70412],[45.02239,41.73225],[44.97899,41.74786],[44.93083,41.74786],[44.88743,41.73225],[44.8574,41.70412],[44.84668,41.66904],[44.8574,41.63396],[44.88743,41.60583],[44.93083,41.59022],[44.97899,41.59022],[45.02239,41.60583],[45.05242,41.63396],[45.06314,41.66904]]],[[[44.90984,41.69373],[44.89912,41.72881],[44.86908,41.75694],[44.82566,41.77255],[44.77748,41.77255],[44.73406,41.75694],[44.70402,41.72881],[44.6933,41.69373],[44.70402,41.65865],[44.73406,41.63052],[44.77748,41.61491],[44.82566,41.61491],[44.86908,41.63052],[44.89912,41.65865],[44.90984,41.69373]]],[[[44.97802,41.68423],[44.9673,41.71931],[44.93726,41.74744],[44.89385,41.76305],[44.84567,41.76305],[44.80226,41.74744],[44.77222,41.71931],[44.7615,41.68423],[44.77222,41.64915],[44.80226,41.62102],[44.84567,41.60541],[44.89385,41.60541],[44.93726,41.62102],[44.9673,41.64915],[44.97802,41.68423]]],[[[45.05644,41.69222],[45.04572,41.7273],[45.01567,41.75543],[44.97226,41.77104],[44.92408,41.77104],[44.88067,41.75543],[44.85062,41.7273],[44.8399,41.69222],[44.85062,41.65714],[44.88067,41.62901],[44.92408,41.6134],[44.97226,41.6134],[45.01567,41.62901],[45.04572,41.65714],[45.05644,41.69222]]],[[[45.12931,41.68815],[45.11859,41.72323],[45.08855,41.75136],[45.04514,41.76697],[44.99696,41.76697],[44.95355,41.75136],[44.92351,41.72323],[44.91279,41.68815],[44.92351,41.65307],[44.95355,41.62494],[44.99696,41.60933],[45.04514,41.60933],[45.08855,41.62494],[45.11859,41.65307],[45.12931,41.68815]]],[[[45.18963,41.68216],[45.17891,41.71724],[45.14887,41.74537],[45.10547,41.76098],[45.05729,41.76098],[45.01389,41.74537],[44.98385,41.71724],[44.97313,41.68216],[44.98385,41.64708],[45.01389,41.61895],[45.05729,41.60334],[45.10547,41.60334],[45.14887,41.61895],[45.17891,41.64708],[45.18963,41.68216]]],[[[45.25548,41.67755],[45.24477,41.71263],[45.21473,41.74076],[45.17133,41.75637],[45.12315,41.75637],[45.07975,41.74076],[45.04971,41.71263],[45.039,41.67755],[45.04971,41.64247],[45.07975,41.61434],[45.12315,41.59873],[45.17133,41.59873],[45.21473,41.61434],[45.24477,41.64247],[45.25548,41.67755]]],[[[45.31624,41.70723],[45.30552,41.74231],[45.27547,41.77044],[45.23205,41.78605],[45.18385,41.78605],[45.14043,41.77044],[45.11038,41.74231],[45.09966,41.70723],[45.11038,41.67215],[45.14043,41.64402],[45.18385,41.62841],[45.23205,41.62841],[45.27547,41.64402],[45.30552,41.67215],[45.31624,41.70723]]],[[[45.38875,41.70543],[45.37803,41.74051],[45.34798,41.76864],[45.30456,41.78425],[45.25636,41.78425],[45.21294,41.76864],[45.18289,41.74051],[45.17217,41.70543],[45.18289,41.67035],[45.21294,41.64222],[45.25636,41.62661],[45.30456,41.62661],[45.34798,41.64222],[45.37803,41.67035],[45.38875,41.70543]]],[[[45.46083,41.70483],[45.45011,41.73991],[45.42006,41.76804],[45.37664,41.78365],[45.32844,41.78365],[45.28502,41.76804],[45.25497,41.73991],[45.24425,41.70483],[45.25497,41.66975],[45.28502,41.64162],[45.32844,41.62601],[45.37664,41.62601],[45.42006,41.64162],[45.45011,41.66975],[45.46083,41.70483]]],[[[45.52638,41.71915],[45.51566,41.75423],[45.4856,41.78236],[45.44217,41.79797],[45.39397,41.79797],[45.35054,41.78236],[45.32048,41.75423],[45.30976,41.71915],[45.32048,41.68407],[45.35054,41.65594],[45.39397,41.64033],[45.44217,41.64033],[45.4856,41.65594],[45.51566,41.68407],[45.52638,41.71915]]],[[[45.59472,41.70751],[45.58399,41.74259],[45.55394,41.77072],[45.51052,41.78633],[45.46232,41.78633],[45.4189,41.77072],[45.38885,41.74259],[45.37812,41.70751],[45.38885,41.67243],[45.4189,41.6443],[45.46232,41.62869],[45.51052,41.62869],[45.55394,41.6443],[45.58399,41.67243],[45.59472,41.70751]]],[[[45.63744,41.66654],[45.62672,41.70162],[45.59669,41.72975],[45.55329,41.74536],[45.50513,41.74536],[45.46173,41.72975],[45.4317,41.70162],[45.42098,41.66654],[45.4317,41.63146],[45.46173,41.60333],[45.50513,41.58772],[45.55329,41.58772],[45.59669,41.60333],[45.62672,41.63146],[45.63744,41.66654]]],[[[45.69547,41.64219],[45.68475,41.67727],[45.65473,41.7054],[45.61135,41.72101],[45.56321,41.72101],[45.51983,41.7054],[45.48981,41.67727],[45.47909,41.64219],[45.48981,41.60711],[45.51983,41.57898],[45.56321,41.56337],[45.61135,41.56337],[45.65473,41.57898],[45.68475,41.60711],[45.69547,41.64219]]],[[[45.77462,41.64013],[45.76391,41.67521],[45.73389,41.70334],[45.69051,41.71895],[45.64237,41.71895],[45.59899,41.70334],[45.56897,41.67521],[45.55826,41.64013],[45.56897,41.60505],[45.59899,41.57692],[45.64237,41.56131],[45.69051,41.56131],[45.73389,41.57692],[45.76391,41.60505],[45.77462,41.64013]]],[[[45.84707,41.62764],[45.83636,41.66272],[45.80635,41.69085],[45.76298,41.70646],[45.71484,41.70646],[45.67147,41.69085],[45.64146,41.66272],[45.63075,41.62764],[45.64146,41.59256],[45.67147,41.56443],[45.71484,41.54882],[45.76298,41.54882],[45.80635,41.56443],[45.83636,41.59256],[45.84707,41.62764]]],[[[45.91955,41.62828],[45.90884,41.66336],[45.87883,41.69149],[45.83546,41.7071],[45.78732,41.7071],[45.74395,41.69149],[45.71394,41.66336],[45.70323,41.62828],[45.71394,41.5932],[45.74395,41.56507],[45.78732,41.54946],[45.83546,41.54946],[45.87883,41.56507],[45.90884,41.5932],[45.91955,41.62828]]],[[[45.97006,41.60072],[45.95935,41.6358],[45.92935,41.66393],[45.886,41.67954],[45.83788,41.67954],[45.79453,41.66393],[45.76453,41.6358],[45.75382,41.60072],[45.76453,41.56564],[45.79453,41.53751],[45.83788,41.5219],[45.886,41.5219],[45.92935,41.53751],[45.95935,41.56564],[45.97006,41.60072]]],[[[46.02923,41.60945],[46.01852,41.64453],[45.98852,41.67266],[45.94516,41.68827],[45.89704,41.68827],[45.85368,41.67266],[45.82368,41.64453],[45.81297,41.60945],[45.82368,41.57437],[45.85368,41.54624],[45.89704,41.53063],[45.94516,41.53063],[45.98852,41.54624],[46.01852,41.57437],[46.02923,41.60945]]],[[[46.02694,41.62617],[46.01623,41.66125],[45.98622,41.68938],[45.94285,41.70499],[45.89471,41.70499],[45.85134,41.68938],[45.82133,41.66125],[45.81062,41.62617],[45.82133,41.59109],[45.85134,41.56296],[45.89471,41.54735],[45.94285,41.54735],[45.98622,41.56296],[46.01623,41.59109],[46.02694,41.62617]]],[[[46.02572,41.64591],[46.01501,41.68099],[45.98499,41.70912],[45.9416,41.72473],[45.89346,41.72473],[45.85007,41.70912],[45.82005,41.68099],[45.80934,41.64591],[45.82005,41.61083],[45.85007,41.5827],[45.89346,41.56709],[45.9416,41.56709],[45.98499,41.5827],[46.01501,41.61083],[46.02572,41.64591]]],[[[46.03716,41.66726],[46.02644,41.70234],[45.99641,41.73047],[45.95301,41.74608],[45.90485,41.74608],[45.86145,41.73047],[45.83142,41.70234],[45.8207,41.66726],[45.83142,41.63218],[45.86145,41.60405],[45.90485,41.58844],[45.95301,41.58844],[45.99641,41.60405],[46.02644,41.63218],[46.03716,41.66726]]],[[[45.99309,41.7094],[45.98236,41.74448],[45.95231,41.77261],[45.90889,41.78822],[45.86069,41.78822],[45.81727,41.77261],[45.78722,41.74448],[45.77649,41.7094],[45.78722,41.67432],[45.81727,41.64619],[45.86069,41.63058],[45.90889,41.63058],[45.95231,41.64619],[45.98236,41.67432],[45.99309,41.7094]]],[[[45.93231,41.73469],[45.92158,41.76977],[45.89152,41.7979],[45.84808,41.81351],[45.79986,41.81351],[45.75642,41.7979],[45.72636,41.76977],[45.71563,41.73469],[45.72636,41.69961],[45.75642,41.67148],[45.79986,41.65587],[45.84808,41.65587],[45.89152,41.67148],[45.92158,41.69961],[45.93231,41.73469]]],[[[45.88534,41.77261],[45.8746,41.80769],[45.84452,41.83582],[45.80105,41.85143],[45.75281,41.85143],[45.70934,41.83582],[45.67926,41.80769],[45.66852,41.77261],[45.67926,41.73753],[45.70934,41.7094],[45.75281,41.69379],[45.80105,41.69379],[45.84452,41.7094],[45.8746,41.73753],[45.88534,41.77261]]],[[[45.83783,41.80643],[45.82709,41.84151],[45.797,41.86964],[45.75351,41.88525],[45.70523,41.88525],[45.66174,41.86964],[45.63165,41.84151],[45.62091,41.80643],[45.63165,41.77135],[45.66174,41.74322],[45.70523,41.72761],[45.75351,41.72761],[45.797,41.74322],[45.82709,41.77135],[45.83783,41.80643]]],[[[45.77974,41.83192],[45.76899,41.867],[45.73888,41.89513],[45.69537,41.91074],[45.64709,41.91074],[45.60358,41.89513],[45.57347,41.867],[45.56272,41.83192],[45.57347,41.79684],[45.60358,41.76871],[45.64709,41.7531],[45.69537,41.7531],[45.73888,41.76871],[45.76899,41.79684],[45.77974,41.83192]]],[[[45.80207,41.87799],[45.79132,41.91307],[45.76119,41.9412],[45.71765,41.95681],[45.66933,41.95681],[45.62579,41.9412],[45.59566,41.91307],[45.58491,41.87799],[45.59566,41.84291],[45.62579,41.81478],[45.66933,41.79917],[45.71765,41.79917],[45.76119,41.81478],[45.79132,41.84291],[45.80207,41.87799]]],[[[45.77791,41.86031],[45.76716,41.89539],[45.73704,41.92352],[45.69352,41.93913],[45.6452,41.93913],[45.60168,41.92352],[45.57156,41.89539],[45.56081,41.86031],[45.57156,41.82523],[45.60168,41.7971],[45.6452,41.78149],[45.69352,41.78149],[45.73704,41.7971],[45.76716,41.82523],[45.77791,41.86031]]],[[[45.80045,41.8256],[45.78971,41.86068],[45.75961,41.88881],[45.7161,41.90442],[45.66782,41.90442],[45.62431,41.88881],[45.59421,41.86068],[45.58347,41.8256],[45.59421,41.79052],[45.62431,41.76239],[45.66782,41.74678],[45.7161,41.74678],[45.75961,41.76239],[45.78971,41.79052],[45.80045,41.8256]]],[[[45.85878,41.80226],[45.84803,41.83734],[45.81794,41.86547],[45.77445,41.88108],[45.72619,41.88108],[45.6827,41.86547],[45.65261,41.83734],[45.64186,41.80226],[45.65261,41.76718],[45.6827,41.73905],[45.72619,41.72344],[45.77445,41.72344],[45.81794,41.73905],[45.84803,41.76718],[45.85878,41.80226]]],[[[45.90506,41.75958],[45.89433,41.79466],[45.86426,41.82279],[45.8208,41.8384],[45.77256,41.8384],[45.7291,41.82279],[45.69903,41.79466],[45.6883,41.75958],[45.69903,41.7245],[45.7291,41.69637],[45.77256,41.68076],[45.8208,41.68076],[45.86426,41.69637],[45.89433,41.7245],[45.90506,41.75958]]],[[[45.94659,41.72207],[45.93586,41.75715],[45.90581,41.78528],[45.86237,41.80089],[45.81417,41.80089],[45.77073,41.78528],[45.74068,41.75715],[45.72995,41.72207],[45.74068,41.68699],[45.77073,41.65886],[45.81417,41.64325],[45.86237,41.64325],[45.90581,41.65886],[45.93586,41.68699],[45.94659,41.72207]]],[[[45.95658,41.68458],[45.94586,41.71966],[45.91582,41.74779],[45.87241,41.7634],[45.82423,41.7634],[45.78082,41.74779],[45.75078,41.71966],[45.74006,41.68458],[45.75078,41.6495],[45.78082,41.62137],[45.82423,41.60576],[45.87241,41.60576],[45.91582,41.62137],[45.94586,41.6495],[45.95658,41.68458]]],[[[45.93469,41.63716],[45.92397,41.67224],[45.89396,41.70037],[45.85058,41.71598],[45.80244,41.71598],[45.75906,41.70037],[45.72905,41.67224],[45.71833,41.63716],[45.72905,41.60208],[45.75906,41.57395],[45.80244,41.55834],[45.85058,41.55834],[45.89396,41.57395],[45.92397,41.60208],[45.93469,41.63716]]],[[[45.86689,41.62524],[45.85618,41.66032],[45.82616,41.68845],[45.7828,41.70406],[45.73466,41.70406],[45.6913,41.68845],[45.66128,41.66032],[45.65057,41.62524],[45.66128,41.59016],[45.6913,41.56203],[45.73466,41.54642],[45.7828,41.54642],[45.82616,41.56203],[45.85618,41.59016],[45.86689,41.62524]]],[[[45.79275,41.63536],[45.78204,41.67044],[45.75203,41.69857],[45.70865,41.71418],[45.66051,41.71418],[45.61713,41.69857],[45.58712,41.67044],[45.57641,41.63536],[45.58712,41.60028],[45.61713,41.57215],[45.66051,41.55654],[45.70865,41.55654],[45.75203,41.57215],[45.78204,41.60028],[45.79275,41.63536]]],[[[45.71096,41.6424],[45.70024,41.67748],[45.67022,41.70561],[45.62684,41.72122],[45.5787,41.72122],[45.53532,41.70561],[45.5053,41.67748],[45.49458,41.6424],[45.5053,41.60732],[45.53532,41.57919],[45.5787,41.56358],[45.62684,41.56358],[45.67022,41.57919],[45.70024,41.60732],[45.71096,41.6424]]],[[[45.63782,41.6593],[45.62711,41.69438],[45.59708,41.72251],[45.55369,41.73812],[45.50553,41.73812],[45.46214,41.72251],[45.43211,41.69438],[45.4214,41.6593],[45.43211,41.62422],[45.46214,41.59609],[45.50553,41.58048],[45.55369,41.58048],[45.59708,41.59609],[45.62711,41.62422],[45.63782,41.6593]]],[[[45.60255,41.70395],[45.59183,41.73903],[45.56178,41.76716],[45.51836,41.78277],[45.47016,41.78277],[45.42674,41.76716],[45.39669,41.73903],[45.38597,41.70395],[45.39669,41.66887],[45.42674,41.64074],[45.47016,41.62513],[45.51836,41.62513],[45.56178,41.64074],[45.59183,41.66887],[45.60255,41.70395]]],[[[45.53493,41.71777],[45.52421,41.75285],[45.49415,41.78098],[45.45072,41.79659],[45.40252,41.79659],[45.35909,41.78098],[45.32903,41.75285],[45.31831,41.71777],[45.32903,41.68269],[45.35909,41.65456],[45.40252,41.63895],[45.45072,41.63895],[45.49415,41.65456],[45.52421,41.68269],[45.53493,41.71777]]],[[[45.4663,41.70585],[45.45558,41.74093],[45.42553,41.76906],[45.38211,41.78467],[45.33391,41.78467],[45.29049,41.76906],[45.26044,41.74093],[45.24972,41.70585],[45.26044,41.67077],[45.29049,41.64264],[45.33391,41.62703],[45.38211,41.62703],[45.42553,41.64264],[45.45558,41.67077],[45.4663,41.70585]]],[[[45.39119,41.70533],[45.38047,41.74041],[45.35042,41.76854],[45.307,41.78415],[45.2588,41.78415],[45.21538,41.76854],[45.18533,41.74041],[45.17461,41.70533],[45.18533,41.67025],[45.21538,41.64212],[45.2588,41.62651],[45.307,41.62651],[45.35042,41.64212],[45.38047,41.67025],[45.39119,41.70533]]],[[[45.31735,41.70766],[45.30662,41.74274],[45.27657,41.77087],[45.23315,41.78648],[45.18495,41.78648],[45.14153,41.77087],[45.11148,41.74274],[45.10075,41.70766],[45.11148,41.67258],[45.14153,41.64445],[45.18495,41.62884],[45.23315,41.62884],[45.27657,41.64445],[45.30662,41.67258],[45.31735,41.70766]]],[[[45.2554,41.67767],[45.24468,41.71275],[45.21464,41.74088],[45.17124,41.75649],[45.12306,41.75649],[45.07966,41.74088],[45.04962,41.71275],[45.0389,41.67767],[45.04962,41.64259],[45.07966,41.61446],[45.12306,41.59885],[45.17124,41.59885],[45.21464,41.61446],[45.24468,41.64259],[45.2554,41.67767]]],[[[45.18975,41.68221],[45.17903,41.71729],[45.14899,41.74542],[45.10559,41.76103],[45.05741,41.76103],[45.01401,41.74542],[44.98397,41.71729],[44.97325,41.68221],[44.98397,41.64713],[45.01401,41.619],[45.05741,41.60339],[45.10559,41.60339],[45.14899,41.619],[45.17903,41.64713],[45.18975,41.68221]]],[[[45.13121,41.6887],[45.12049,41.72378],[45.09045,41.75191],[45.04704,41.76752],[44.99886,41.76752],[44.95545,41.75191],[44.92541,41.72378],[44.91469,41.6887],[44.92541,41.65362],[44.95545,41.62549],[44.99886,41.60988],[45.04704,41.60988],[45.09045,41.62549],[45.12049,41.65362],[45.13121,41.6887]]],[[[45.05833,41.69259],[45.04761,41.72767],[45.01757,41.7558],[44.97415,41.77141],[44.92597,41.77141],[44.88255,41.7558],[44.85251,41.72767],[44.84179,41.69259],[44.85251,41.65751],[44.88255,41.62938],[44.92597,41.61377],[44.97415,41.61377],[45.01757,41.62938],[45.04761,41.65751],[45.05833,41.69259]]],[[[44.9815,41.68408],[44.97078,41.71916],[44.94074,41.74729],[44.89733,41.7629],[44.84915,41.7629],[44.80574,41.74729],[44.7757,41.71916],[44.76498,41.68408],[44.7757,41.649],[44.80574,41.62087],[44.84915,41.60526],[44.89733,41.60526],[44.94074,41.62087],[44.97078,41.649],[44.9815,41.68408]]],[[[44.91822,41.69588],[44.90749,41.73096],[44.87745,41.75909],[44.83403,41.7747],[44.78585,41.7747],[44.74243,41.75909],[44.71239,41.73096],[44.70166,41.69588],[44.71239,41.6608],[44.74243,41.63267],[44.78585,41.61706],[44.83403,41.61706],[44.87745,41.63267],[44.90749,41.6608],[44.91822,41.69588]]],[[[44.90984,41.69373],[44.89912,41.72881],[44.86908,41.75694],[44.82566,41.77255],[44.77748,41.77255],[44.73406,41.75694],[44.70402,41.72881],[44.6933,41.69373],[44.70402,41.65865],[44.73406,41.63052],[44.77748,41.61491],[44.82566,41.61491],[44.86908,41.63052],[44.89912,41.65865],[44.90984,41.69373]]],[[[44.90977,41.6938],[44.89905,41.72888],[44.86901,41.75701],[44.82559,41.77262],[44.77741,41.77262],[44.73399,41.75701],[44.70395,41.72888],[44.69323,41.6938],[44.70395,41.65872],[44.73399,41.63059],[44.77741,41.61498],[44.82559,41.61498],[44.86901,41.63059],[44.89905,41.65872],[44.90977,41.6938]]],[[[45.06293,41.6692],[45.05221,41.70428],[45.02218,41.73241],[44.97878,41.74802],[44.93062,41.74802],[44.88722,41.73241],[44.85719,41.70428],[44.84647,41.6692],[44.85719,41.63412],[44.88722,41.60599],[44.93062,41.59038],[44.97878,41.59038],[45.02218,41.60599],[45.05221,41.63412],[45.06293,41.6692]]],[[[44.97742,41.6931],[44.96074,41.74767],[44.91401,41.79143],[44.84648,41.81571],[44.77152,41.81571],[44.70399,41.79143],[44.65726,41.74767],[44.64058,41.6931],[44.65726,41.63853],[44.70399,41.59477],[44.77152,41.57049],[44.84648,41.57049],[44.91401,41.59477],[44.96074,41.63853],[44.97742,41.6931]]],[[[44.97771,41.689],[44.96103,41.74357],[44.9143,41.78733],[44.84677,41.81161],[44.77183,41.81161],[44.7043,41.78733],[44.65757,41.74357],[44.64089,41.689],[44.65757,41.63443],[44.7043,41.59067],[44.77183,41.56639],[44.84677,41.56639],[44.9143,41.59067],[44.96103,41.63443],[44.97771,41.689]]],[[[44.98032,41.6906],[44.96364,41.74517],[44.91691,41.78893],[44.84938,41.81321],[44.77442,41.81321],[44.70689,41.78893],[44.66016,41.74517],[44.64348,41.6906],[44.66016,41.63603],[44.70689,41.59227],[44.77442,41.56799],[44.84938,41.56799],[44.91691,41.59227],[44.96364,41.63603],[44.98032,41.6906]]],[[[44.96992,41.6934],[44.95324,41.74797],[44.90651,41.79173],[44.83898,41.81601],[44.76402,41.81601],[44.69649,41.79173],[44.64976,41.74797],[44.63308,41.6934],[44.64976,41.63883],[44.69649,41.59507],[44.76402,41.57079],[44.83898,41.57079],[44.90651,41.59507],[44.95324,41.63883],[44.96992,41.6934]]],[[[44.95925,41.7047],[44.94257,41.75927],[44.89583,41.80303],[44.82828,41.82731],[44.75332,41.82731],[44.68577,41.80303],[44.63903,41.75927],[44.62235,41.7047],[44.63903,41.65013],[44.68577,41.60637],[44.75332,41.58209],[44.82828,41.58209],[44.89583,41.60637],[44.94257,41.65013],[44.95925,41.7047]]],[[[44.97443,41.6976],[44.95775,41.75217],[44.91102,41.79593],[44.84348,41.82021],[44.76852,41.82021],[44.70098,41.79593],[44.65425,41.75217],[44.63757,41.6976],[44.65425,41.64303],[44.70098,41.59927],[44.76852,41.57499],[44.84348,41.57499],[44.91102,41.59927],[44.95775,41.64303],[44.97443,41.6976]]],[[[44.95914,41.699],[44.94246,41.75357],[44.89572,41.79733],[44.82818,41.82161],[44.75322,41.82161],[44.68568,41.79733],[44.63894,41.75357],[44.62226,41.699],[44.63894,41.64443],[44.68568,41.60067],[44.75322,41.57639],[44.82818,41.57639],[44.89572,41.60067],[44.94246,41.64443],[44.95914,41.699]]],[[[44.95443,41.6951],[44.93775,41.74967],[44.89101,41.79343],[44.82348,41.81771],[44.74852,41.81771],[44.68099,41.79343],[44.63425,41.74967],[44.61757,41.6951],[44.63425,41.64053],[44.68099,41.59677],[44.74852,41.57249],[44.82348,41.57249],[44.89101,41.59677],[44.93775,41.64053],[44.95443,41.6951]]],[[[44.85738,42.3536],[44.84053,42.40817],[44.79331,42.45193],[44.72507,42.47621],[44.64933,42.47621],[44.58109,42.45193],[44.53387,42.40817],[44.51702,42.3536],[44.53387,42.29903],[44.58109,42.25527],[44.64933,42.23099],[44.72507,42.23099],[44.79331,42.25527],[44.84053,42.29903],[44.85738,42.3536]]],[[[44.81351,42.6572],[44.79657,42.71177],[44.74912,42.75553],[44.68055,42.77981],[44.60445,42.77981],[44.53588,42.75553],[44.48843,42.71177],[44.47149,42.6572],[44.48843,42.60263],[44.53588,42.55887],[44.60445,42.53459],[44.68055,42.53459],[44.74912,42.55887],[44.79657,42.60263],[44.81351,42.6572]]],[[[44.89388,41.8284],[44.87716,41.88297],[44.83033,41.92673],[44.76266,41.95101],[44.68754,41.95101],[44.61987,41.92673],[44.57304,41.88297],[44.55632,41.8284],[44.57304,41.77383],[44.61987,41.73007],[44.68754,41.70579],[44.76266,41.70579],[44.83033,41.73007],[44.87716,41.77383],[44.89388,41.8284]]],[[[44.28199,41.9847],[44.26524,42.03927],[44.21829,42.08303],[44.15045,42.10731],[44.07515,42.10731],[44.00731,42.08303],[43.96036,42.03927],[43.94361,41.9847],[43.96036,41.93013],[44.00731,41.88637],[44.07515,41.86209],[44.15045,41.86209],[44.21829,41.88637],[44.26524,41.93013],[44.28199,41.9847]]],[[[42.54925,42.4147],[42.53238,42.46927],[42.48511,42.51303],[42.41681,42.53731],[42.34099,42.53731],[42.27269,42.51303],[42.22542,42.46927],[42.20855,42.4147],[42.22542,42.36013],[42.27269,42.31637],[42.34099,42.29209],[42.41681,42.29209],[42.48511,42.31637],[42.53238,42.36013],[42.54925,42.4147]]],[[[42.88795,42.2679],[42.87112,42.32247],[42.82396,42.36623],[42.75582,42.39051],[42.68018,42.39051],[42.61204,42.36623],[42.56488,42.32247],[42.54805,42.2679],[42.56488,42.21333],[42.61204,42.16957],[42.68018,42.14529],[42.75582,42.14529],[42.82396,42.16957],[42.87112,42.21333],[42.88795,42.2679]]],[[[42.87306,42.272],[42.85623,42.32657],[42.80907,42.37033],[42.74092,42.39461],[42.66528,42.39461],[42.59713,42.37033],[42.54997,42.32657],[42.53314,42.272],[42.54997,42.21743],[42.59713,42.17367],[42.66528,42.14939],[42.74092,42.14939],[42.80907,42.17367],[42.85623,42.21743],[42.87306,42.272]]],[[[43.15048,41.6403],[43.13382,41.69487],[43.08712,41.73863],[43.01965,41.76291],[42.94475,41.76291],[42.87728,41.73863],[42.83058,41.69487],[42.81392,41.6403],[42.83058,41.58573],[42.87728,41.54197],[42.94475,41.51769],[43.01965,41.51769],[43.08712,41.54197],[43.13382,41.58573],[43.15048,41.6403]]],[[[43.5519,41.8383],[43.53519,41.89287],[43.48835,41.93663],[43.42066,41.96091],[43.34554,41.96091],[43.27785,41.93663],[43.23101,41.89287],[43.2143,41.8383],[43.23101,41.78373],[43.27785,41.73997],[43.34554,41.71569],[43.42066,41.71569],[43.48835,41.73997],[43.53519,41.78373],[43.5519,41.8383]]],[[[43.53939,41.8317],[43.52267,41.88627],[43.47584,41.93003],[43.40816,41.95431],[43.33304,41.95431],[43.26536,41.93003],[43.21853,41.88627],[43.20181,41.8317],[43.21853,41.77713],[43.26536,41.73337],[43.33304,41.70909],[43.40816,41.70909],[43.47584,41.73337],[43.52267,41.77713],[43.53939,41.8317]]],[[[43.54881,41.84],[43.53209,41.89457],[43.48525,41.93833],[43.41756,41.96261],[43.34244,41.96261],[43.27475,41.93833],[43.22791,41.89457],[43.21119,41.84],[43.22791,41.78543],[43.27475,41.74167],[43.34244,41.71739],[43.41756,41.71739],[43.48525,41.74167],[43.53209,41.78543],[43.54881,41.84]]],[[[43.5519,41.8383],[43.53519,41.89287],[43.48835,41.93663],[43.42066,41.96091],[43.34554,41.96091],[43.27785,41.93663],[43.23101,41.89287],[43.2143,41.8383],[43.23101,41.78373],[43.27785,41.73997],[43.34554,41.71569],[43.42066,41.71569],[43.48835,41.73997],[43.53519,41.78373],[43.5519,41.8383]]],[[[43.55071,41.8397],[43.53399,41.89427],[43.48715,41.93803],[43.41946,41.96231],[43.34434,41.96231],[43.27665,41.93803],[43.22981,41.89427],[43.21309,41.8397],[43.22981,41.78513],[43.27665,41.74137],[43.34434,41.71709],[43.41946,41.71709],[43.48715,41.74137],[43.53399,41.78513],[43.55071,41.8397]]],[[[43.54881,41.84],[43.53209,41.89457],[43.48525,41.93833],[43.41756,41.96261],[43.34244,41.96261],[43.27475,41.93833],[43.22791,41.89457],[43.21119,41.84],[43.22791,41.78543],[43.27475,41.74167],[43.34244,41.71739],[43.41756,41.71739],[43.48525,41.74167],[43.53209,41.78543],[43.54881,41.84]]],[[[46.09013,41.6197],[46.07347,41.67427],[46.02679,41.71803],[45.95933,41.74231],[45.88447,41.74231],[45.81701,41.71803],[45.77033,41.67427],[45.75367,41.6197],[45.77033,41.56513],[45.81701,41.52137],[45.88447,41.49709],[45.95933,41.49709],[46.02679,41.52137],[46.07347,41.56513],[46.09013,41.6197]]],[[[44.96992,41.6938],[44.95324,41.74837],[44.90651,41.79213],[44.83898,41.81641],[44.76402,41.81641],[44.69649,41.79213],[44.64976,41.74837],[44.63308,41.6938],[44.64976,41.63923],[44.69649,41.59547],[44.76402,41.57119],[44.83898,41.57119],[44.90651,41.59547],[44.95324,41.63923],[44.96992,41.6938]]],[[[44.96992,41.6938],[44.95324,41.74837],[44.90651,41.79213],[44.83898,41.81641],[44.76402,41.81641],[44.69649,41.79213],[44.64976,41.74837],[44.63308,41.6938],[44.64976,41.63923],[44.69649,41.59547],[44.76402,41.57119],[44.83898,41.57119],[44.90651,41.59547],[44.95324,41.63923],[44.96992,41.6938]]]]}}]}
